city,state,county,name,zip,state2,address,phone
Daphne,AL,baldwin,Daphne Dog Park,36526,al,8600 Whispering Pines Road,251-621-3703
Fairhope,AL,baldwin,Fairhope Dog Park,36532,al,701 Volanta Avenue,251-990-0174
Gulf Shores,AL,baldwin,Gulf Shores Dog Park,36542,al,308 Clubhouse Drive,251-968-2431
Orange Beach,AL,baldwin,Unleashed in Orange Beach Dog Park,36561,al,27920 Canal Road,251-981-6979
Fultondale,AL,jefferson,Fultondale Bark Park,35068,al,2398 Stouts Road,205-841-4481
Hoover,AL,jefferson,Loch Haven Dog Park,35216,al,Loch Haven Drive,205-444-7510
Birmingham,AL,jefferson,Remy's Dog Park,35211,al,2011 Frankfurt Drive,205-202-6043
Madison,AL,madison,Dog Spot Dog Park,35758,al,360 Harvestwood Court,256-564-8026
Madison,AL,madison,Indian Creek Dog Park,35758,al,360 Harvestwood Court,
Madison,AL,madison,Mill Creek Dog Park,35758,al,38 Balch Road,256-772-2553
Mobile,AL,mobile,Julien Marx Dog Park,36695,al,1711 Hillcrest Road,
Birmingham,AL,shelby,Cahaba Beach Dog Park,35242,al,3557 Cahaba Beach Road,205-397-3647
Tuscaloosa,AL,tuscaloosa,Will May Memorial Dog Park,35406,al,6198 Watermelon Road,205-361-2258
Anchorage,AK,anchorage,Chugiak Dog Park,99567,ak,19926 Tenada Avenue,907-390-7015
Anchorage,AK,anchorage,Connors Bog Dog Park,99502,ak,3608 Jewel Lake Road,
Anchorage,AK,anchorage,University Lake Dog Park,99508,ak,4050 University Lake Drive,907-343-8119
Fairbanks,AK,fairbanks,Fairbanks Dog Park,99701,ak,2nd Avenue,
Peoria,AZ,maricopa,Alta Vista Dog Park,85383,az,10631 West Williams Road,
Gilbert,AZ,maricopa,Cosmo Dog Park,85296,az,2502 East Ray Road,480-503-6200
Mesa,AZ,maricopa,Countryside Dog Park,85204,az,3130 East Southern Avenue,480-644-4271
Fountain Hills,AZ,maricopa,Desert Vista Dog Park,85268,az,11800 Desert Vista,480-816-5151
El Mirage,AZ,maricopa,El mirage Dog Park,85335,az,10100 North El Mirage Road,623-876-2977
Fountain Hills,AZ,maricopa,Fountain Hills Dog Park,85268,az,11800 Desert Vista,480-816-5151
Phoenix,AZ,maricopa,Friends of Hance Dog Park,85003,az,323 West Culver Street,623-850-4716
Goodyear,AZ,maricopa,Goodyear Dog Park,85338,az,Roeser Road,623-882-7525
Phoenix,AZ,maricopa,Grover's Basin Dog Park,85022,az,East Grovers Avenue,602-262-6696
Phoenix,AZ,maricopa,Grovers Basin Dog Park,85022,az,17445 North 20th Street,
Scottsdale,AZ,maricopa,McKellips Dog Park,85257,az,7701 East McKinley Street,
Tempe,AZ,maricopa,Mitchell Dog Park,85281,az,900 South Mitchell Drive,480-350-5200
Tempe,AZ,maricopa,Papago Dog Park,85281,az,1000 North College Avenue,480-350-5200
Chandler,AZ,maricopa,Paseo Vista Dog Park,85249,az,773 East Ocotillo Road,480-782-2754
Phoenix,AZ,maricopa,Pecos Park Dog Park,85048,az,17071 South 48th Street,602-262-6971
Queen Creek,AZ,maricopa,Pocket Park For Pups,85142,az,22526 South Ellsworth Road,480-358-3770
Mesa,AZ,maricopa,Quail Run Dog Park,85215,az,4030 North Norwalk,
Phoenix,AZ,maricopa,RJ Dog Park at Pecos Park,85048,az,17010 South 48th Street,602-495-5500
Goodyear,AZ,maricopa,Roscoe Dog Park,85338,az,Roeser Road,623-826-0241
Peoria,AZ,maricopa,Scotland Yard Dog Park,85345,az,9251 West Scotland Avenue,623-764-0407
Lake Havasu,AZ,mohave,Lion's Dog Park,86403,az,1340 McCulloch Boulevard North,928-453-8686
Tucson,AZ,pima,Brandi Fenton Dog Park,85718,az,3398 North Alvernon Way,
Tucson,AZ,pima,Crossroads At Silverbell Dog Park,85743,az,7548 North Silverbell Road,520-572-5601
Tucson,AZ,pima,North 6th Ave Dog Park,85705,az,2075 North 6th Avenue,520-791-5909
Tucson,AZ,pima,Reid Dog Park,85716,az,900 South Randolph Way,520-791-3206
Marana,AZ,pima,San Lucas Community Dog Park,85658,az,14040 North Adonis Road,
Tucson,AZ,pima,Sixth Avenue Dog Park,85705,az,2075 North 6th Avenue,520-791-5909
Tucson,AZ,pima,Smiling Dog Ranch Dog Park,85718,az,4110 East River Road,
Casa Grande,AZ,pinal,Casa Grande Dog Park,85122,az,2525 North Pinal Avenue,
Cordes Lakes,AZ,yavapai,Henry Cordes Dog Park,86333,az,19625 East Stagecoach Trail,
Sedona,AZ,yavapai,Sedona Dog Park,86336,az,950 Soldiers Pass Road,928-203-5057
Yuma,AZ,yuma,Yuma Dog Park,85365,az,1647 East Palo Verde Street,928-373-5200
Yuma,AZ,yuma,Yuma Dog Park,85365,az,1705 East Palo Verde Street,928-373-5000
Mountain Home,AR,baxter,Mountain Home Dog Park,72653,ar,1832 Rossi Road,
Rogers,AR,benton,Murphy Memorial Dog Park,72758,ar,407 East Nursery Road,
Conway,AR,faulkner,Conway's Petsafe Dog Park,72032,ar,Acorn Kid Loop,
Little Rock,AR,pulaski,Friends of Paws Parks,72207,ar,5900 Rebsamen Park Road,
Benton,AR,saline,Benton Dog Park,72015,ar,1914 U Street,
Fort Smith,AR,sebastian,Fort Smith Dog Park,72903,ar,3301 South M Street,479-784-2368
Fayetteville,AR,washington,Iams Dog Park,72704,ar,1595 North Dartmouth Avenue,
Alameda,CA,alameda,ARPD Dog Exercise Park,94501,ca,2226 Santa Clara Avenue,
Alameda,CA,alameda,Alameda Dog Exercise Area,94501,ca,8th Street,510-748-4568
Alameda,CA,alameda,Alameda Dog Park,94501,ca,Westline Drive,510-397-1133
Alameda,CA,alameda,Alameda Small Dog Park,94501,ca,8th Street,
Dublin,CA,alameda,Bray Commons Dog Park,94568,ca,3115 Finnian Way,
Albany,CA,alameda,Buchanan Dog Beach,94706,ca,Buchanan Street,510-981-6700
Castro Valley,CA,alameda,Castro Valley Dog Park,94552,ca,4660 Crow Canyon Road,510-881-6700
Livermore,CA,alameda,Cayetano Dog Park,94551,ca,Portola Avenue,
Fremont,CA,alameda,Central Park Dog Park,94538,ca,1740 Stevenson Boulevard,510-790-5541
Dublin,CA,alameda,Dougherty Hills Dog Park,94568,ca,Stagecoach Road,
Union,CA,alameda,Drigon Dog Park,94587,ca,Mission Boulevard,510-471-3232
Hayward,CA,alameda,Eden Greenway Dog Park,94545,ca,26874 Contessa Street,
Oakland,CA,alameda,Hardy Dog Park,94618,ca,491 Hardy Street,
Oakland,CA,alameda,Joaquin Miller Dog Park,94602,ca,3590 Sanborn Drive,510-238-3187
Alameda,CA,alameda,Main Street Linear Dog Park,94501,ca,Main Street,
Oakland,CA,alameda,Mosswood Dog Run,94609,ca,3612 Webster Street,
Hayward,CA,alameda,Old Creek Dog Park of Cherryland,94541,ca,400 Hampton Road,
Oakland,CA,alameda,Piedmont Dog Park,94611,ca,711 Highland Avenue,
San Leandro,CA,alameda,San Leandro Dog Park,94577,ca,14001 Monarch Bay Drive,510-577-3971
Oakland,CA,alameda,South Prescott Dog Park,94607,ca,3rd Street,510-238-7275
Chico,CA,butte,Degarmo Dog Park,95926,ca,545 Vallombrosa Avenue,530-895-4721
Paradise,CA,butte,Moore Road Dog Park,95969,ca,6705 Moore Road,
Oroville,CA,butte,Pat Alley Memorial Dog Park,95965,ca,Montgomery Street,530-533-2011
Concord,CA,contra,Baldwin Dog Park,94519,ca,2700 Parkside Circle,925-671-3479
El Cerrito,CA,contra,Bruce King Memorial Dog Park,94530,ca,1600 Lexington Avenue,510-215-4369
Clayton,CA,contra,Clayton Dog Park,94517,ca,Marsh Creek Road,
San Ramon,CA,contra,Del Mar Dog Park,94583,ca,Del Mar Drive,
Discovery Bay,CA,contra,Discovery Bay Dog Park,94505,ca,1601 Discovery Bay Boulevard,925-392-4575
Concord,CA,contra,Freeplay Dogs Indoor Dog Park,94520,ca,1776 Arnold Industrial Way,925-692-2144
Danville,CA,contra,Hap Magee Dog Park,94526,ca,1025 La Gonda Way,925-314-3400
Hercules,CA,contra,Hercules Dog Park,94547,ca,190 Turquoise Drive,
Pittsburg,CA,contra,Highlands Ranch Dog Park,94565,ca,194 Rangewood Drive,
Richmond,CA,contra,Judge George D Carroll Dog Park,94801,ca,83 East Richmond Avenue,
Antioch,CA,contra,Markley Creek Dog Park,94509,ca,James Donlon Boulevard,
Richmond,CA,contra,Mudpuppy's at Point Isabel Dog Park,94804,ca,1 Isabel Street,888-505-2998
Pinole,CA,contra,Pinole Dog Park,94564,ca,3790 Pinole Valley Road,
Concord,CA,contra,The Paw Patch Dog Park at Newhall Park,94521,ca,1351 Newhall Parkway,925-671-3404
South Lake Tahoe,CA,el,Bijou Dog Park,96150,ca,1201 Al Tahoe Boulevard,530-542-6056
Fresno,CA,fresno,Basin AH1 Dog Park,93722,ca,4257 West Alamos Avenue,559-621-2900
Fresno,CA,fresno,Dr James W Thornton Dog Park,93726,ca,3934 North Hayston Avenue,559-233-8708
Eureka,CA,humboldt,Eureka Dog Park,95501,ca,2020 Watson Street,707-599-0371
Fortuna,CA,humboldt,Fortuna Dog Park,95540,ca,100 Dinsmore Drive,707-725-3959
Bishop,CA,inyo,Bishop Dog Park,93514,ca,218 East Yaney Street,
Ridgecrest,CA,kern,Ridgecrest Dog Park,93555,ca,300 French Avenue,
Bakersfield,CA,kern,The Apt's Dog Park,93308,ca,6001 Krebs Road,
Bakersfield,CA,kern,University Park & Dog Park,93306,ca,4301 University Avenue,661-326-3000
Lemoore,CA,kings,Waggin' Tails Dog Park,93245,ca,957 Tammy Lane,
Pasadena,CA,los,Alice Frost Kennedy Dog Park,91107,ca,3026 East Orange Grove Boulevard,626-744-7195
Arcadia,CA,los,Arcadia Dog Park,91006,ca,North 2nd Avenue,626-574-5113
Culver,CA,los,Boneyard Dog Park,90230,ca,Duquesne Avenue,310-390-9114
Santa Clarita,CA,los,Canine Country Off Leash Dog Park,91350,ca,20880 Centre Pointe Parkway,
West Covina,CA,los,Central Bark Dog Park,91791,ca,1500 East Rowland Avenue,
Glendora,CA,los,City of Glendora Dog Park,91740,ca,715 East Mauna Loa Avenue,
Diamond Bar,CA,los,Diamond Bar Bark Park,91765,ca,738 Pantera Drive,909-839-7060
Diamond Bar,CA,los,Diamond Bar Dog Park,91765,ca,738 Pantera Drive,909-839-7060
El Segundo,CA,los,El Segundo Dog Park,90245,ca,600 East Imperial Avenue,310-524-2300
Bellflower,CA,los,Flora Vista Dog Park,90706,ca,9203 Flora Vista Street,562-804-1424
Los Angeles,CA,los,Griffith Park Dog Park,90027,ca,North Zoo Drive,323-913-4688
Los Angeles,CA,los,Hermon Dog Park,90042,ca,5568 Via Marisol,323-255-0370
Lakewood,CA,los,Home Run Dog Park,90713,ca,20531 Studebaker Road,562-803-3301
Santa Monica,CA,los,Joslyn BBall & Dog Park,90405,ca,2300 7th Street,310-396-1763
Long Beach,CA,los,K-9 Corner Dog Park,90813,ca,East 9th Street,562-570-7387
Los Angeles,CA,los,Knoll Hill Dog Park,90731,ca,705 North Front Street,310-514-0338
Los Angeles,CA,los,LAPD Lawn Dog Park,90012,ca,100 West 1st Street,323-644-3946
Lawndale,CA,los,Lawndale Dog Park,90260,ca,14725 Larch Avenue,
Long Beach,CA,los,Long Beach Dog Park,90803,ca,5000 East Ocean Boulevard,562-570-3100
Los Angeles,CA,los,Los Angeles Live Dog Park,90015,ca,L.A. Live Way,213-765-6844
Novato,CA,marin,Dogbone Meadow,94945,ca,2551 Novato Boulevard,415-899-8200
San Rafael,CA,marin,Field of Dogs Dog Park,94903,ca,Civic Center Drive,415-479-2838
Mill Valley,CA,marin,Mill Valley Dog Park,94941,ca,450 Sycamore Avenue,
San Anselmo,CA,marin,Red Hill Dog Park,94960,ca,180 Shaw Drive,415-258-4640
Sausalito,CA,marin,Sausalito Dog Park,94965,ca,100 Ebbtide Avenue,415-846-8323
Fort Bragg,CA,mendocino,Fort Bragg Dog Park,95437,ca,Maple Street,
Willits,CA,mendocino,Frank Grasse Dog Park,95490,ca,East Commercial Street,
Ukiah,CA,mendocino,Low Gap Dog Park,95482,ca,1167 Low Gap Road,707-463-6231
Mendocino,CA,mendocino,Mendocino Dog Park,95460,ca,44700 Pine Street,707-937-4133
Merced,CA,merced,Merced Dog Park,95348,ca,West Yosemite Avenue,
Monterey,CA,monterey,City of Monterey Dog Park,93940,ca,777 Pearl Street,831-646-3860
Marina,CA,monterey,Schoonover Dog Park,93933,ca,601 Thomas Court,831-883-3150
Seaside,CA,monterey,William Pacchetti Dog Park,93955,ca,Kimball Avenue,
American Canyon,CA,napa,American Canyon Dog Park,94503,ca,2801 Broadway Street,
Napa,CA,napa,Canine Commons Dog Park,94558,ca,Dry Creek Road,707-257-9529
Calistoga,CA,napa,Franquelin Dog Park,94515,ca,1401 North Oak Street,707-303-0010
Grass Valley,CA,nevada,Dogs Run Free,95945,ca,660 Minnie Street,530-273-9268
Truckee,CA,nevada,Martis Creek Lake Dog Park,96161,ca,11645 Martis Drive,530-587-8113
Los Alamitos,CA,orange,Arbor Dog Park,90720,ca,4665 Lampson Avenue,714-431-2527
Huntington Beach,CA,orange,Best Friend Dog Park,92647,ca,Edwards Street,716-642-7962
Newport Beach,CA,orange,Civic Center Dog Park,92660,ca,1521 Avocado Avenue,949-644-3309
Costa Mesa,CA,orange,Costa Mesa Bark Park,92626,ca,890 Arlington Drive,949-733-4101
Coto de Caza,CA,orange,Coto De Caza Dog Park,92679,ca,VÃ­a Pajaro,
San Juan Capistrano,CA,orange,Dr Joe Cortese Dog Park,92675,ca,30291 Camino Capistrano,
Fullerton,CA,orange,Fullerton Pooch Park,92833,ca,201 South Basque Avenue,714-738-3330
Garden Grove,CA,orange,Garden Grove Dog Park,92844,ca,9301 Westminster Avenue,714-590-2790
Huntington Beach,CA,orange,Huntington Beach Dog Park,92647,ca,Edwards Street,714-536-5672
Irvine,CA,orange,Irvine Central Bark Dog Park,92618,ca,6405 Oak Canyon,949-724-7740
Anaheim,CA,orange,La Palma Dog Park,92801,ca,1151 North Anaheim Boulevard,714-765-5191
Mission Viejo,CA,orange,La Paws Dog Park,92692,ca,25100 Felipe Road,949-470-3000
Laguna Beach,CA,orange,Laguna Beach Dog Park,92651,ca,Laguna Canyon Road,949-499-9243
Laguna Niguel,CA,orange,Laguna Niguel Dog Park,92677,ca,31461 Street of the Golden Lantern,949-362-4300
Laguna Woods,CA,orange,Laguna Woods Dog Park,92637,ca,24400 Ridge Route Drive,949-639-0500
Irvine,CA,orange,Los Olivos Dog Park,92618,ca,6301 Ansel,
Newport Beach,CA,orange,Newport Beach Dog Park,92660,ca,100 Civic Center Drive,949-644-3309
Orange,CA,orange,Orange Dog Park,92869,ca,190 South Yorba Street,714-744-7274
Rancho Santa Margarita,CA,orange,Rancho Santa Margarita Dog Park,92688,ca,24328 Antonio Parkway,949-216-9700
San Clemente,CA,orange,San Clemente Dog Park,92673,ca,301 Avenida La Pata,
Auburn,CA,placer,Ashley Memorial Dog Park,95603,ca,1601 Auburn Ravine Road,530-885-8461
Lincoln,CA,placer,Auburn Ravine Dog Park,95648,ca,1300 Green Ravine Drive,
Roseville,CA,placer,Bear Dog Park,95747,ca,1575 Pleasant Grove Boulevard,916-772-7529
Roseville,CA,placer,Marco Dog Park,95661,ca,1800 Sierra Gardens Drive,916-774-2854
Rocklin,CA,placer,RRUFF Dog Park,95677,ca,5480 5th Street,916-435-0196
Lake Elsinore,CA,riverside,Canyon Hills Dog Park,92532,ca,31989 Hollyhock Way,800-400-2284
Riverside,CA,riverside,Carlson Dog Park,92501,ca,Mission Inn Avenue,951-826-2000
Cathedral,CA,riverside,Cathedral City Dog Park,92234,ca,68752 Buddy Rogers Avenue,
Corona,CA,riverside,Corona Dog Park,92880,ca,1886 Butterfield Drive,
Jurupa Valley,CA,riverside,Country Village Dog Park,91752,ca,10251 Country Club Drive,
Moreno Valley,CA,riverside,Hound Town Dog Park,92555,ca,11150 Redlands Boulevard,
Palm Desert,CA,riverside,Joe Mann Dog Park,92211,ca,77810 California Drive,
La Quinta,CA,riverside,La Quinta Dog Park,92253,ca,44950 Seeley Drive,
Indio,CA,riverside,Mulligan Dog Park,92201,ca,45355 Van Buren Street,
Banning,CA,riverside,Noble Creek Community Dog Park,92220,ca,14th Street,951-769-8524
Hemet,CA,riverside,Oltman Dog Park,92545,ca,Cawston Avenue North,
Palm Desert,CA,riverside,Palm Desert Dog Park,92260,ca,43900 San Pablo Avenue,
Palm Springs,CA,riverside,Palm Springs Dog Park,92262,ca,222 North Civic Drive,760-323-8283
Riverside,CA,riverside,Pat Merritt Dog Park,92509,ca,Limonite Frontage Road,951-358-7387
Riverside,CA,riverside,Riverwalk Dog Park,92505,ca,Pierce Street,
La Quinta,CA,riverside,Seasons Dog Park,92253,ca,78100 Cloud View Way,
Temecula,CA,riverside,Temecula Dog Exercise Area,92592,ca,44747 Redhawk Parkway,951-694-6444
Palm Desert,CA,riverside,University Dog Park,92211,ca,74960 Gerald Ford Drive,760-346-0611
Sacramento,CA,sacramento,Bannon Creek Dog Park,95833,ca,2780 Azevedo Drive,877-411-3436
Citrus Heights,CA,sacramento,C-bar-C Park Dog Park,95610,ca,8275 Oak Avenue,916-725-1585
Elk Grove,CA,sacramento,Elk Grove Off Leash Dog Park,95624,ca,9950 Elk Grove Florin Road,916-405-5300
Folsom,CA,sacramento,FIDO Field - Folsom Dog Park,95630,ca,1775 Creekside Drive,916-355-7285
Rancho Cordova,CA,sacramento,Hagan Off Leash Dog Park,95670,ca,2197 Chase Drive,916-369-9844
Sacramento,CA,sacramento,Howe Avenue Dog Park,95825,ca,2201 Cottage Way,
Elk Grove,CA,sacramento,Jacinto Creek Dog Park,95758,ca,8600 West Stockton Boulevard,916-808-5200
Sacramento,CA,sacramento,Lynn Robie Dog Park,95832,ca,7735 Freeport Boulevard,
Fair Oaks,CA,sacramento,Phoenix Dog Park,95628,ca,8999 Kruitof Way,916-374-9009
Sacramento,CA,sacramento,Power Inn Road Dog Park,95826,ca,8200 Ramona Avenue,
Sacramento,CA,sacramento,Regency Community Dog Park,95835,ca,Bridgecross Drive,
Sacramento,CA,sacramento,Seabreeze Dog Park,95838,ca,North Avenue,
Sacramento,CA,sacramento,Sutter's Landing Park - Dog Park,95816,ca,20 28th Street,916-808-5200
Sacramento,CA,sacramento,The Bark Park,95827,ca,3839 Bradshaw Road,916-368-7387
Apple Valley,CA,san,Apple Valley Dog Park,92307,ca,14999 Dale Evans Parkway,
Highland,CA,san,Aurantia Dog Park,92346,ca,29624 Greenspot Road,
Upland,CA,san,Baldy View Dog Park,91786,ca,West 11th Street,909-931-4280
Big Bear Lake,CA,san,Bear Park Dog Park,92315,ca,41220 Park Avenue,909-866-9700
Rancho Cucamonga,CA,san,Etiwanda Creek Community Dog Park,91739,ca,5939 East Avenue,909-477-2765
Crestline,CA,san,Lake Gregory Dog Park,92325,ca,24171 Lake Drive,909-338-2233
Loma Linda,CA,san,Loma Linda Dog Park,92354,ca,Beaumont Avenue,
Ontario,CA,san,Ontario Dog Park,91762,ca,415 West Transit Street,
Chino,CA,san,Prado Recreation Dog Park,91708,ca,17505 Euclid Avenue,909-597-6366
Redlands,CA,san,Redlands Dog Park,92374,ca,East Highland Avenue,909-633-1008
Ontario,CA,san,Schimmel Dog Park,91764,ca,1106 East I Street,909-946-6921
Needles,CA,san,Spike's Desert Dog Park,92363,ca,1193 Filip Mendez Parkway,
Carlsbad,CA,san,Ann D L'Heureux Memorial Dog Park,92010,ca,2700 Carlsbad Village Drive,760-434-2824
Poway,CA,san,Beagle Brigade,92064,ca,13094 Bowron Road,760-591-4116
San Diego,CA,san,Cadman Dog Park,92117,ca,4280 Avati Drive,
San Diego,CA,san,Capehart Dog Park,92109,ca,4747 Soledad Mountain Road,619-221-8901
Coronado,CA,san,Coronado Beach Dog Park,92118,ca,Ocean Boulevard,619-522-7342
San Diego,CA,san,Dog Park at Doyle Park,92122,ca,Decoro Street,
Encinitas,CA,san,Encinitas Power Lines Dog Park,92024,ca,1679 Mountain Vista Drive,
San Diego,CA,san,Grape Street Dog Park,92102,ca,Grape Street,619-268-4804
Encinitas,CA,san,Maggie Houlihan Memorial Dog Park,92024,ca,425 Santa Fe Drive,
San Diego,CA,san,Mariner's Cove Dog Park,92107,ca,4378 West Point Loma Boulevard,619-224-2278
Escondido,CA,san,Mayflower Dog Park,92027,ca,3450 East Valley Parkway,760-839-4691
San Marcos,CA,san,Montiel Dog Park,92069,ca,Montiel Road,760-744-9000
San Diego,CA,san,Nate's Point Dog Park,92103,ca,2500 Balboa Drive,619-325-5620
San Diego,CA,san,Nobel Dog Park,92122,ca,8820 Judicial Drive,
Oceanside,CA,san,Oceanside Dog Park,92058,ca,2905 San Luis Rey Road,760-757-4357
San Diego,CA,san,Pacific Beach Dog Park,92109,ca,5115 Soledad Road,858-581-9927
Poway,CA,san,Poway Dog Park,92064,ca,13094 Civic Center Drive,858-668-4671
San Diego,CA,san,Rancho Penasquitos Dog Park,92129,ca,Salmon River Road,
Santee,CA,san,Santee Dog Park,92071,ca,10250 Woodglen Vista Drive,
San Diego,CA,san,Scripps Ranch Dog Park,92131,ca,9970 Scripps Ranch Boulevard,858-860-5760
San Francisco,CA,san,25th St Dog Park,94107,ca,25th Street,
San Francisco,CA,san,Alemany Boulevard Dog Park,94132,ca,3550 Alemany Boulevard,
San Francisco,CA,san,Castro Dog Park,94114,ca,4124 18th Street,415-525-4743
San Francisco,CA,san,Cole Valley Dog Park,94117,ca,86 Carl Street,
San Francisco,CA,san,Collingwood Dog Park,94114,ca,Collingwood Street,
San Francisco,CA,san,Crissy Field Dog Run,94129,ca,Mason Street,415-437-0100
San Francisco,CA,san,Dolores Park Dog Run Area,94131,ca,207 Day Street,415-831-5520
San Francisco,CA,san,Golden Gate Park Dog Run,94121,ca,2725 Anza Street,415-386-2014
San Francisco,CA,san,Panhandle Dog Run,94117,ca,421 Central Avenue,415-831-2090
San Francisco,CA,san,Rincon Hill Dog Park,94105,ca,486 Beale Street,
San Francisco,CA,san,SoMa West Skate and Dog Park,94103,ca,Central Freeway,415-242-6390
San Francisco,CA,san,St Mary's Park and Dog Park,94112,ca,95 Justin Drive,
San Francisco,CA,san,Stern Grove Dog Park,94132,ca,2750 19th Avenue,650-829-3800
San Francisco,CA,san,Upper Douglass Dog Park,94131,ca,800 27th Street,415-970-8063
Stockton,CA,san,Barkleyville Dog Park,95219,ca,5505 Feather River Drive,
Lathrop,CA,san,Mossdale Landing Dog Park,95330,ca,700 Towne Centre Drive,209-941-7370
Tracy,CA,san,Tracy Dog Park,95376,ca,301 Grant Line Road,209-831-6200
Arroyo Grande,CA,san,Arroyo Grande Dog Park,93420,ca,1221 Ash Street,805-473-5474
Cambria,CA,san,Cambria Dog Park,93428,ca,2706 Main Street,805-927-3624
San Luis Obispo,CA,san,El Chorro Dog Park,93405,ca,Dairy Creek Road,805-781-5930
Arroyo Grande,CA,san,Elm Street Dog Park,93420,ca,1221 Ash Street,805-474-0105
Atascadero,CA,san,Heilmann Dog Park,93422,ca,1100 El Bordo Avenue,805-781-5930
Paso Robles,CA,san,Sherwood Dog Park,93446,ca,290 Scott Street,
Templeton,CA,san,Vineyard Dog Park,93465,ca,Semillon Lane,805-239-4437
Redwood,CA,san,Bair Island Dog Park,94063,ca,702 Bair Island Road,
Brisbane,CA,san,Brisbane Dog Park,94005,ca,Park Place,
South San Francisco,CA,san,Centennial Way Dog Park,94080,ca,35 West Orange Avenue,650-829-3837
Belmont,CA,san,Cipriani Dog Park,94002,ca,2525 Buena Vista Avenue,
Half Moon Bay,CA,san,Half Moon Bay Dog Park,94019,ca,400 Wavecrest Road,
Redwood,CA,san,Linden Apartment's Dog Park,94061,ca,224 Linden Street,
Pacifica,CA,san,Oddstad Dog Park,94044,ca,1050 Crespi Drive,
San Mateo,CA,san,Seal Point Dog Park,94401,ca,1801 East 3rd Avenue,
Redwood,CA,san,Shore Dogs Park,94065,ca,1393 Radio Road,650-654-6538
Lompoc,CA,santa,Barkin Park,93436,ca,511 Summerwood Lane,
Lompoc,CA,santa,Lompoc Barkin Park,93436,ca,300 West Barton Avenue,
Santa Maria,CA,santa,WOOF Pac Off-Leash Dog Park,93455,ca,300 Goodwin Road,805-896-2344
San Jose,CA,santa,Camden Hillsdale Dog Park,95118,ca,Camden Avenue,
San Jose,CA,santa,Discovery Dog Park,95110,ca,400 Park Avenue,
Gilroy,CA,santa,Gilroy Dog Park,95020,ca,400 Mantelli Drive,408-846-0444
San Jose,CA,santa,Hellyer Park Dog Enclosure,95111,ca,995 Hellyer Avenue,
San Jose,CA,santa,Hellyer Sandy Lot Dog Park,95111,ca,995 Hellyer Avenue,
Sunnyvale,CA,santa,Las Palmas Dog Park,94087,ca,850 Russet Drive,
Cupertino,CA,santa,Mary Avenue Dog Park,95014,ca,10309 Mary Avenue,
San Jose,CA,santa,Miyuki Dog Park,95119,ca,Miyuki Drive,408-277-4573
Morgan Hill,CA,santa,Morgan Hill Dog Park,95037,ca,17575 Peak Avenue,408-782-2128
Santa Clara,CA,santa,Reed Street Dog Park,95050,ca,888 Reed Street,408-615-3144
San Jose,CA,santa,Roy M Butcher Dog Park,95124,ca,3950 Camden Avenue,408-794-7275
San Jose,CA,santa,Selma Olinder Dog Park,95116,ca,Woodborough Drive,
Mountain View,CA,santa,Village Green Dog Park,94040,ca,685 San Antonio Road,
San Jose,CA,santa,Watson Dog Park,95112,ca,North 22nd Street,
Aptos,CA,santa,Aptos Dog Park,95003,ca,2255 Huntington Drive,
Santa Cruz,CA,santa,Chanticleer Dog Park,95062,ca,1975 Chanticleer Avenue,
Watsonville,CA,santa,Franich Dog Park,95076,ca,795 Vista Montana Drive,
Santa Cruz,CA,santa,Mimi De Marta Dog Park,95060,ca,130 Broadway,831-420-5270
Santa Cruz,CA,santa,Pacheco Dog Park,95065,ca,Pacheco Avenue,
Watsonville,CA,santa,Pinto Lake County Dog Park,95076,ca,757 Green Valley Road,831-454-7901
Scotts Valley,CA,santa,Scotts Valley Dog Park,95066,ca,361 Kings Village Road,831-438-3251
Benicia,CA,solano,Phenix Dog Park,94510,ca,100 Dempsey Drive,
Vallejo,CA,solano,Wardlaw Dog Park,94591,ca,1805 Ascot Parkway,707-704-6167
Glen Ellen,CA,sonoma,Elizabeth Anne Perrone Dog Park,95442,ca,13630 Highway 12,707-565-2041
Petaluma,CA,sonoma,Rocky Memorial Dog Park,94954,ca,Casa Grande Road,707-778-4380
Rohnert Park,CA,sonoma,Rohnert Park Dog Park,94928,ca,5010 Roberts Lake Road,707-588-3456
Healdsburg,CA,sonoma,Villa Dog Park,95448,ca,Villa Chanticleer Road,
Modesto,CA,stanislaus,CR Ranch Pet-O-Tel & Ranch Resort & Dog Park,95356,ca,6060 American Avenue,209-545-1255
Modesto,CA,stanislaus,Modesto Dog Park,95354,ca,West Morris Avenue,
Oakdale,CA,stanislaus,Oakdale Dog Park,95361,ca,7910 Crane Road,
Modesto,CA,stanislaus,Prescott Church Dog Park,95350,ca,3000 Prescott Road,
Turlock,CA,stanislaus,Turlock Dog Park,95380,ca,500 South Berkeley Avenue,
Yuba,CA,sutter,Yuba-Sutter Dog Park,95991,ca,Wild River Drive,530-329-1997
Red Bluff,CA,tehama,Samuel Ayer Dog Island Park,96080,ca,1360 Main Street,530-527-8177
Reedley,CA,tulare,The Jimmie Low Community Dog Park,93654,ca,3018 Ridge Creek Drive,
Camarillo,CA,ventura,Camarillo Dog Park,93010,ca,3818 Almendro Way,
Oxnard,CA,ventura,College Park Dog Park,93036,ca,1000 Town Center Drive,805-385-7545
Thousand Oaks,CA,ventura,Conejo Creek Dog Park,91360,ca,1350 East Avenida De Las Flores,805-495-6471
Moorpark,CA,ventura,Moorpark Dog Park,93021,ca,15400 Campus Park Drive,
Oak Park,CA,ventura,Oak Canyon Dog Park,91377,ca,5600 Hollytree Drive,805-584-4400
Oak Park,CA,ventura,Oak Park Dog Park,91377,ca,5600 Hollytree Drive,818-292-1303
Simi Valley,CA,ventura,Simi Dog Park,93065,ca,2151 Lost Canyons Drive,805-584-4400
Davis,CA,yolo,Toad Hollow Dog Park,95616,ca,1919 2nd Street,530-757-5626
Woodland,CA,yolo,Woodland Dog Park,95776,ca,2001 East Street,530-661-2000
Commerce,CO,adams,First Creek Dog Park,80022,co,Havana Street,303-289-3753
Brighton,CO,adams,Happy Tails Dog Park,80601,co,1111 Judicial Center Drive,303-655-2049
Northglenn,CO,adams,Happy Trails Dog Park,80233,co,Irma Drive,
Westminster,CO,adams,Little Dry Creek Dog Park,80030,co,3655 West 69th Place,
Thornton,CO,adams,Trail Winds Dog Park,80241,co,13385 Holly Street,
Aurora,CO,arapahoe,Bicentennial Park Off-Leash Dog Area,80012,co,13600 East Bayaud Avenue,303-739-7160
Aurora,CO,arapahoe,Grandview Dog Park,80015,co,17500 East Quincy Avenue,303-326-8948
Denver,CO,arapahoe,Kennedy Dog Park,80231,co,9500 East Hampden Avenue,
Boulder,CO,boulder,Foothills Dog Park,80304,co,800 Cherry Avenue,303-413-7258
Lafayette,CO,boulder,Great Bark Park,80026,co,597 North 119th Street,303-665-5588
Longmont,CO,boulder,Longmont Dog Park,80503,co,9079 Saint Vrain Road,
Longmont,CO,boulder,Longmont Dog Park 2,80503,co,8904 Saint Vrain Road,
Louisville,CO,boulder,Louisville Community Dog Park,80027,co,955 Bella Vista Drive,303-335-4735
Boulder,CO,boulder,North Boulder Dog Park,80304,co,2848 9th Street,
Boulder,CO,boulder,Valmont Dog Park,80301,co,5275 Valmont Road,303-413-7258
Denver,CO,denver,Berkeley Leashless Dog Park,80212,co,4800 Sheridan Boulevard,
Denver,CO,denver,Greenway Dog Park,80238,co,Syracuse Street,
Denver,CO,denver,Jason St Dog Park,80223,co,978 South Jason Street,
Denver,CO,denver,Josephine Gardens Dog Park,80206,co,East Colfax Avenue,
Denver,CO,denver,Little Boxcar Dog Park,80205,co,North Broadway,720-913-1311
Denver,CO,denver,Lowry Dog Park,80230,co,555 Uinta Way,303-326-7103
Denver,CO,denver,Railyard Dog Park,80202,co,19th Street,
Denver,CO,denver,Stapleton Dog Park,80238,co,2002 Spruce Street,
Denver,CO,denver,Stapleton Off-leash Dog Park,80238,co,Montview Boulevard,
Littleton,CO,douglas,Chatfield Dog Park,80125,co,11500 N Roxborough Park Rd,303-791-7275
Castle Rock,CO,douglas,Douglas County Dog Park,80104,co,1100 Plum Creek Parkway,
Castle Rock,CO,douglas,Glendale Open Space Dog Park,80108,co,12300 South Havana Street,303-660-7495
Vail,CO,eagle,West Vail Dog Park,81657,co,2154 South Frontage Road West,970-476-0717
Colorado Springs,CO,el,ChampDog Park,80920,co,5470 Powers Center Point,719-282-3300
Colorado Springs,CO,el,Cheyenne Meadows Dog Park,80906,co,1560 Charmwood Drive,
Colorado Springs,CO,el,Cheyenne Meadows Dog Park,80906,co,3868 Glenmeadow Drive,
Granby,CO,grand,Bear Creek Dog Park,80446,co,County Road 21,719-520-7529
Lakewood,CO,jefferson,Forsberg Iron Spring Dog Park,80228,co,14800 West Alameda Parkway,
Golden,CO,jefferson,Homer's Run Dog Park,80401,co,17651 West 10th Avenue,
Golden,CO,jefferson,Tony Grampsas Dog Park,80403,co,4471 Salvia Street,303-279-6034
Arvada,CO,jefferson,West Arvada Dog Park,80007,co,17975 West 64th Avenue,303-421-3487
Westminster,CO,jefferson,Westminster Dog Park South,80005,co,Simms Street,
Estes Park,CO,larimer,Estes Valley Dog Park,80517,co,880 Dunraven Street,
Fort Collins,CO,larimer,Front Range Village Dog Park,80525,co,2842 Council Tree Avenue,970-223-1283
Fort Collins,CO,larimer,Horsetooth Dog Park,80526,co,2626 West Horsetooth Road,970-221-6660
Greeley,CO,weld,F Street Dog Park,80634,co,County Road 31,
Evans,CO,weld,Freedom Dog Park,80620,co,2095 42nd Street,
Greenwich,CT,fairfield,Grass Island Dog Park,06830,ct,Grass Island Road,203-622-7814
New Fairfield,CT,fairfield,New Fairfield Dog Park,06812,ct,56 Gillotti Road,203-312-5800
Norwalk,CT,fairfield,Rowayton Dog Park,06853,ct,36 McKinley Street,
Shelton,CT,fairfield,Shelton Dog Park,06484,ct,320 Nells Rock Road,
Stamford,CT,fairfield,Stamford Dog Park,06902,ct,39 Courtland Avenue,203-325-4688
Trumbull,CT,fairfield,Trumbull Dog Park,06611,ct,Indian Ledge Park Road,
Westport,CT,fairfield,Winslow Dog Park,06880,ct,Compo Road North,
Bristol,CT,hartford,Bristol Dog Park,06010,ct,238 Jacobs Street,
Granby,CT,hartford,Granby CT Dog Park,06035,ct,215 Salmon Brook Street,
Simsbury,CT,hartford,Paw Meadow Dog Park,06070,ct,22 Iron Horse Boulevard,860-578-4729
Rocky Hill,CT,hartford,Rocky Hill Dog Park,06067,ct,Elm Ridge Drive,860-258-2772
South Windsor,CT,hartford,South Windsor Bark Park,06074,ct,Chief Ryan Way,
Southington,CT,hartford,Southington Dog Park,06489,ct,133 Mill Street,
Windsor,CT,hartford,Windsor Dog Park,06095,ct,104 Lang Road,
New Milford,CT,litchfield,Candlewoof Dog Park,06776,ct,2 Pickett District Road,
Cromwell,CT,middlesex,Cromwell Dog Park,06416,ct,80 Coles Road,
Middlefield,CT,middlesex,Middlefield Dog Park,06455,ct,102 Mattabeseck Road,
Derby,CT,new,Ansonia- Derby Dog Park,06418,ct,Coon Hollow Road,
Cheshire,CT,new,Cheshire Dog Park,06410,ct,1220 Waterbury Road,203-272-2743
New Haven,CT,new,Edgewood Park Dog Park,06511,ct,1296 Ella T Grasso Boulevard,
Waterbury,CT,new,Fort Hale Dog Park,06704,ct,24 Fort Hill Avenue,
Hamden,CT,new,Hamden Dog Park,06517,ct,Ridge Road,203-582-8739
Southbury,CT,new,Southbury Dog Park,06488,ct,236 Roxbury Road,
New Haven,CT,new,Union Street Dog Park,06511,ct,87 Union Street,
Wolcott,CT,new,Wolcott Dog Park,06716,ct,127 Mad River Road,
Colchester,CT,new,Colchester Dog Park,06415,ct,99 Old Hebron Road,860-537-7295
Norwich,CT,new,Norwich Dog Park,06360,ct,261 Asylum Street,
Wilmington,DE,new,Carousel Farms Dog Park,19808,de,4651 Old Linden Hill Road,
Wilmington,DE,new,Elsmere Dog Park,19805,de,400 Baltimore Avenue,
Newark,DE,new,Iron Hill Dog Park,19702,de,North Old Baltimore Pike,610-627-9000
Middletown,DE,new,Levels Road Dog Park,19709,de,900 Levels Road,
Bear,DE,new,Lums Pond Dog Park,19701,de,3355 Red Lion Road,302-368-6989
Washington,DC,district,Adams Morgan Dog Park,20009,dc,2498 18th Street Northwest,202-633-3038
Washington,DC,district,Columbia Heights Dog Park,20001,dc,11th Street Northwest,202-630-3627
Washington,DC,district,Foggy Bottom Dog Park,20037,dc,900 23rd Street Northwest,
Washington,DC,district,Francis Dog Park,20016,dc,39th Street Northwest,
Washington,DC,district,JBAB Dog Park,20032,dc,20 MacDill Boulevard Southeast,
Washington,DC,district,Kingsman Field Dog Park,20002,dc,D Street Northeast,202-715-3879
Washington,DC,district,Langdon Dog Park,20018,dc,2901 20th Street Northeast,
Washington,DC,district,Newark Street Dog Park,20016,dc,39th Street Northwest,202-671-0421
Washington,DC,district,S Street Dog Park,20009,dc,S Street Northwest,202-673-7647
Washington,DC,district,Shaw Dog Park,20001,dc,1701 6th Street Northwest,202-265-8899
Washington,DC,district,Shaw Dog Park,20002,dc,1651 11th Place Northeast,330-737-1364
Washington,DC,district,Upshur Dog Park,20011,dc,4300 Arkansas Avenue Northwest,
Washington,DC,district,Virginia Avenue Dog Park,20003,dc,1098 L Street Southeast,
Gainesville,FL,alachua,Dogwood Park & Daycare,32608,fl,5505 Southwest Archer Road,352-335-1919
Gainesville,FL,alachua,Haisley Lynch Park & Dog Park,32601,fl,450 South Main Street,
Macclenny,FL,baker,Gee Dog Run,32063,fl,7696 County Road 125,904-259-3181
Panama,FL,bay,Al Helms Dog Park,32401,fl,1022 Balboa Avenue,
Panama City Beach,FL,bay,Dog Beach at Pier Park,32413,fl,701 Pier Park Drive,850-236-5959
Panama,FL,bay,Everett Ave Dog Park,32401,fl,1137 Everitt Avenue,
Panama City Beach,FL,bay,Pier Park Dog Beach,32413,fl,Front Beach Road,
Panama,FL,bay,Zollie Young Dog Park,32404,fl,3829 East 43rd Street,850-784-4065
Melbourne Beach,FL,brevard,Canova Beach Dog Park,32951,fl,3299 South Highway A1A,321-255-4400
Indialantic,FL,brevard,Canova Dog Beach,32903,fl,3299 North Highway A1A,
Titusville,FL,brevard,Marina Park - Dog And Skate Park,32796,fl,501 Marina Road,321-267-1667
Satellite Beach,FL,brevard,Satellite Beach Dog Park,32937,fl,750 Jamaica Boulevard,321-777-3538
Parkland,FL,broward,Barkland Dog Park,33067,fl,9245 Ranch Road,954-757-4104
Pompano Beach,FL,broward,Canine Corner Dog Park,33062,fl,1101 North Federal Highway,954-786-4574
Coral Springs,FL,broward,Dr Paul's Pet Care Center Dog Park,33065,fl,2915 Sportsplex Drive,
Oakland Park,FL,broward,Oakland Dog Bark,33309,fl,971 Northwest 38th Street,
Hollywood,FL,broward,Oakridge Dog Park,33021,fl,800 Knights Road,954-921-3404
Davie,FL,broward,Peaceful Ridge Dog Park,33330,fl,2950 South Flamingo Road,954-275-8504
Pembroke Pines,FL,broward,Pembroke Pines Dog Park,33024,fl,9751 Johnson Street,954-435-6525
Fort Lauderdale,FL,broward,Precious Paws Dog Park,33312,fl,2901 Southwest 52nd Street,954-924-6800
North Lauderdale,FL,broward,Tamarac Dog Park,33068,fl,8101 Southgate Boulevard,
North Lauderdale,FL,broward,Woodville Dog Park,33068,fl,1500 Southwest 83rd Avenue,
Punta Gorda,FL,charlotte,Edgewater Dog Park,33980,fl,22967 Bayshore Road,
Inverness,FL,citrus,Bark Central Dog Park,34453,fl,6301 East Turner Camp Road,352-341-2275
Orange Park,FL,clay,Orange Park Dog Track,32073,fl,455 Park Avenue,
Orange Park,FL,clay,Poochie's Park,32065,fl,21 Fountain Drive,904-272-4545
Naples,FL,collier,Naples Dog Park,34102,fl,295 Riverside Circle,
Naples,FL,collier,Rover Run Dog Park,34109,fl,1895 Veterans Park Drive,
Atlantic Beach,FL,duval,Atlantic Beach Dog Park,32233,fl,268 Aquatic Drive,904-247-5800
Jacksonville,FL,duval,Confederate Park Dog Park,32206,fl,956 Hubbard Street,904-630-2489
Jacksonville,FL,duval,Dog Wood Park of Jacksonville,32256,fl,7407 Salisbury Road,904-296-3636
Jacksonville,FL,duval,Puppy Walk at Colonnades,32225,fl,989 Monument Road,904-725-9800
Pensacola,FL,escambia,Bill Dickson Dog Park,32507,fl,3151 Fenceline Road,850-475-5220
Spring Hill,FL,hernando,Hernando County's Dog Park,34608,fl,10375 Sandlor Street,
Apollo Beach,FL,hillsborough,Apollo Beach Dog Park,33572,fl,628 Golf and Sea Boulevard,
Tampa,FL,hillsborough,Bayport Dog Park,33615,fl,10601 Hatteras Drive,
Lutz,FL,hillsborough,Carolyn Meeker Dog Park,33548,fl,122 1st Avenue Northwest,813-635-3500
Tampa,FL,hillsborough,Davis Island Dog Beach,33606,fl,1002 Severn Avenue,813-274-8615
Thonotosassa,FL,hillsborough,Hilltop Dog Park,33592,fl,9420 Harney Road,813-506-6600
Tampa,FL,hillsborough,Hyde Park Dog Park,33606,fl,702 South Albany Avenue,813-864-2635
Tampa,FL,hillsborough,Logan Gate Dog Park,33625,fl,7374 Monterey Boulevard,813-635-3500
Seffner,FL,hillsborough,Mango Dog Park,33584,fl,11717 Clay Pit Road,
Tampa,FL,hillsborough,Northwest County Dog Park,33615,fl,8951 West Waters Avenue,
Ruskin,FL,hillsborough,Ott's Off Leash Dog Sanctuary,33570,fl,2103 3rd Avenue Southeast,813-645-6411
Tampa,FL,hillsborough,West Park Dog Park,33614,fl,6402 North Occident Street,813-635-3500
Vero Beach,FL,indian,Vero Beach Dog Park,32963,fl,3451 Indian River Drive East,772-234-2824
Minneola,FL,lake,Minneola Dog Park,34715,fl,315 Madison Street,
Mount Dora,FL,lake,Mount Dora Dog Park,32757,fl,1550 East 11th Avenue,352-735-7183
Lady Lake,FL,lake,Paradise Dog Park,32159,fl,1300 Paradise Drive,
Mount Dora,FL,lake,Sullivan Ranch Dog Park,32757,fl,21419 Sullivan Ranch Boulevard,
Fort Myers,FL,lee,Barkingham Dog Park,33905,fl,9800 Buckingham Road,239-533-7275
Fort Myers Beach,FL,lee,Bonita Springs Dog Beach,33931,fl,8800 Estero Boulevard,239-707-1874
Bonita Springs,FL,lee,Bonita Springs Dog Beach Park,34134,fl,Estero Boulevard,239-533-7275
Bonita Springs,FL,lee,Bonita Springs Dog Park,34135,fl,11071 East Terry Street,804-695-6201
Estero,FL,lee,Estero Dog Park,33928,fl,9200 Corkscrew Palms Boulevard,239-498-0415
Fort Myers,FL,lee,Gateway Dog Park,33913,fl,13240 Griffin Drive,
North Fort Myers,FL,lee,Pooch Dog Park,33903,fl,1301 Parkview Court,239-229-1627
Cape Coral,FL,lee,Wagging Tails Dog Park,33914,fl,312 El Dorado Parkway West,239-549-4606
Tallahassee,FL,leon,San Luis Dog Park,32304,fl,1569 San Luis Road,
Tallahassee,FL,leon,Tom Brown Park Dog Park,32311,fl,501 Easterwood Drive,850-329-7698
Bradenton,FL,manatee,Creekwood Dog Park,34203,fl,7025 44th Avenue East,
Bradenton,FL,manatee,Perico Apartments Dog Park,34209,fl,11001 Bristol Bay Drive,941-219-4988
Ocala,FL,marion,Letty Towles Dog Park,34471,fl,3201 Southeast 24th Street,352-368-5550
Ocala,FL,marion,Millennium Dog Park,34471,fl,2513 Southeast 32nd Place,352-732-8655
Miami,FL,miami,Dog Chow Dog Park,33133,fl,2400 South Bayshore Drive,
Miami,FL,miami,Dog Park In Coconut Grove,33133,fl,2720 South Dixie Highway,305-461-5506
Miami,FL,miami,Dog Park at West Kendall District Park,33196,fl,11255 Southwest 157th Court,305-386-0227
Miami Beach,FL,miami,Dog Park for The Waverly & The Flamingo,33139,fl,1500 Bay Road,305-535-4810
Miami Springs,FL,miami,Miami Springs Dog Park,33166,fl,599 Quail Avenue,
Miami,FL,miami,Palmetto Bay Dog Park,33157,fl,16425 South Dixie Highway,305-259-1234
Miami,FL,miami,Shorecrest Impromptu Dog Park,33138,fl,6601 Biscayne Boulevard,305-758-9027
Doral,FL,miami,Trails & Tails Park,33178,fl,11645 Northwest 50th Street,305-593-6600
Coral Gables,FL,miami,Unofficial Dog Park,33156,fl,School House Road,
Hallandale Beach,FL,miami,Waterways Dog Park,33009,fl,3401 Northeast 213th Street,305-466-8008
Big Pine Key,FL,monroe,Big Pine Dog Park,33043,fl,31009 Atlantis Drive,305-872-1367
Key West,FL,monroe,Higgs Beach Dog Park,33040,fl,White Street,
Marathon,FL,monroe,Marathon Dog Park,33050,fl,9805 Overseas Highway,305-743-0033
Fernandina Beach,FL,nassau,Nassau Humane Society Dog Park,32034,fl,641 Airport Road,904-491-1511
Destin,FL,okaloosa,Destin Dog Park,32541,fl,4100 Indian Bayou Trail,850-837-4242
Fort Walton Beach,FL,okaloosa,Ft Walton Beach Dog Park,32548,fl,34 Miracle Strip Parkway Southeast,850-244-8191
Niceville,FL,okaloosa,Niceville Dog Park,32578,fl,208 Partin Drive North,
Orlando,FL,orange,Avalon Dog Park,32828,fl,13649 Cygnus Drive,407-277-1043
Orlando,FL,orange,Colonial Ridge Apartments Bark Park,32818,fl,649 Cannon Ridge Drive,407-532-5289
Apopka,FL,orange,Doctors' Dog Park,32703,fl,21 North Highland Avenue,407-703-1741
Orlando,FL,orange,Lake Druid Park Dog Run,32803,fl,899 Coy Drive,407-246-2287
Orlando,FL,orange,Spring Isle Doggie Park,32828,fl,1365 Shallcross Avenue,407-658-9693
Windermere,FL,orange,Summerport Dog Park,34786,fl,13790 Bridgewater Crossings Boulevard,
Winter Garden,FL,orange,West Orange Dog Park,34787,fl,12400 Marshall Farms Road,407-656-3299
St. Cloud,FL,osceola,Harmony Dog Park,34771,fl,3500 Harmony Square Drive West,407-891-8358
Kissimmee,FL,osceola,Mill Slough Dog Park,34744,fl,2318 Agate Street,407-518-2340
Kissimmee,FL,osceola,Mills Slough Dog Park,34744,fl,2138 Agate Street,407-518-2501
Boca Raton,FL,palm,Boca Raton Dog Park,33431,fl,751 Banyan Trail,
Wellington,FL,palm,Greenbriar Dog Park,33414,fl,Greenbriar Boulevard,561-791-4005
Delray Beach,FL,palm,Lake Ida Dog Park,33444,fl,1455 Lake Ida Road,561-966-6600
Lantana,FL,palm,Lantana Dog Park,33462,fl,1200 West Drew Street,
Palm Beach Gardens,FL,palm,Lilac Street Dog Run,33410,fl,4175 Lilac Street,561-630-1100
Boca Raton,FL,palm,Mizner Bark Dog Park,33431,fl,751 Banyan Trail,561-393-7821
West Palm Beach,FL,palm,Pooch Pines Dog Park,33413,fl,7715 Forest Hill Boulevard,
Wellington,FL,palm,Wellington Dog Park,33414,fl,3000 Palm Beach Point Boulevard,
West Palm Beach,FL,palm,West Palm Beach Dog Park,33405,fl,Dreher Trail North,
Wesley Chapel,FL,pasco,Avalon Park West Dog Park,33545,fl,5155 Autumn Ridge Drive,
Zephyrhills,FL,pasco,Meadowood Paw Park,33542,fl,39520 Meadowood Loop,813-780-0022
New Port Richey,FL,pasco,Meadows Park and Dog Park,34653,fl,6674 Meadowbrook Lane,727-841-4560
Wesley Chapel,FL,pasco,Palm Cove Dog Park,33545,fl,Princess Bay Drive,
St. Petersburg,FL,pinellas,5th Avenue Dog Park,33705,fl,1201 5th Avenue North,
Clearwater,FL,pinellas,Dog Park On East Bay,33764,fl,4670 East Bay Drive,
Clearwater,FL,pinellas,Enterprise Dog Park,33759,fl,2671 Enterprise Road East,727-562-4800
St. Petersburg,FL,pinellas,Kenwood Dog Park,33704,fl,401 20th Avenue North,
St. Petersburg,FL,pinellas,Lake Vista Dog Park,33705,fl,1401 62nd Avenue South,727-893-7441
Oldsmar,FL,pinellas,Mobbly Bayou Dog Park,34677,fl,432 Lafayette Boulevard,
St. Petersburg,FL,pinellas,North Shore Dog Park,33701,fl,7th Avenue Northeast,727-893-7441
Tarpon Springs,FL,pinellas,Tarpon Springs Dog Park,34689,fl,198 Live Oak Street,
Mulberry,FL,polk,Diogi Dog Park,33860,fl,500 West Carter Road,863-534-6911
Lakeland,FL,polk,Lake Crago Dog Park,33805,fl,525 Lake Crago Drive,
Navarre,FL,santa,Navarre Central Bark,32566,fl,8827 High School Boulevard,
Milton,FL,santa,Pensacola Beach Dog Park,32570,fl,5950 Berryhill Road,
Sarasota,FL,sarasota,17th Street Paw Park,34235,fl,4570 17th Street,941-951-5848
Sarasota,FL,sarasota,Arlington Dog Park,34293,fl,2650 Waldemere Street,941-316-1346
Venice,FL,sarasota,Brohard Paw Park & Beach,34285,fl,1600 Harbor Drive South,941-861-9830
Sanford,FL,seminole,Paw Park of Historic Sanford,32771,fl,427 South French Avenue,407-330-5688
Casselberry,FL,seminole,Pawmosa Dog Park,32707,fl,140 Plumosa Avenue,407-262-7725
Winter Springs,FL,seminole,Winter Springs Dog Park,32708,fl,900 Hicks Avenue,
Fort Pierce,FL,st,Maravilla Dog Park,34982,fl,2622 Oleander Boulevard,
Jensen Beach,FL,st,Walton Rocks Beach Dog Park,34957,fl,6700 South Ocean Drive,772-462-1692
Oxford,FL,sumter,Doggie Do Run Run Dog Parks,34484,fl,12971 County Road 101,352-330-4446
DeLand,FL,volusia,Barkley Square Dog Park,32720,fl,1010 North Ridgewood Avenue,386-956-4908
Osteen,FL,volusia,Beck Ranch Park Dog Park,32764,fl,751 State Route 415,
Deltona,FL,volusia,Keysville Dog Park,32725,fl,2461 Keysville Avenue,
Holly Hill,FL,volusia,Riviera Oaks Dog Park,32117,fl,980 Alabama Avenue,386-671-3402
Port Orange,FL,volusia,Seamore Memorial Dog Park,32127,fl,5959 Spruce Creek Road,386-236-2150
Macon,GA,bibb,Macon Dog Park,31201,ga,831 Adams Street,
St. Marys,GA,camden,Tommy Casey Dog Park,31558,ga,600 Ashley Street West,912-882-2189
Pooler,GA,chatham,Avala Apartment Dog Park,31322,ga,300 Blue Moon Crossing,912-450-2271
Savannah,GA,chatham,Daffin Park Dog Park,31405,ga,1198 Washington Avenue,912-351-3841
Savannah,GA,chatham,Savannah Dog Park,31401,ga,11 East 41st Street,
Woodstock,GA,cherokee,Woofstock Park,30188,ga,150 Dupree Road,770-517-6788
Athens,GA,clarke,Wiggly Fields Dog Park,30605,ga,325 Whit Davis Road,706-613-3991
Jonesboro,GA,clayton,Carrington Park Dog Park,30236,ga,100 Carrington Park,770-210-0741
Marietta,GA,cobb,Boxerstock Dog Park,30008,ga,2245 Callaway Road Southwest,
Smyrna,GA,cobb,Burger Dog Park,30080,ga,660 Glendale Place,770-431-2842
Kennesaw,GA,cobb,Frank Boone Dog Park,30144,ga,3140 Old 41 Highway Northwest,
Smyrna,GA,cobb,Lake Court Dog Park,30082,ga,3500 Lake Drive Southeast,770-434-6600
Acworth,GA,cobb,Pitner Road Dog Park,30101,ga,2450 Pitner Road Northwest,770-528-8890
Decatur,GA,dekalb,Adair Dog Park,30030,ga,West Ponce de Leon Avenue,
Dunwoody,GA,dekalb,Brook Run Dog Park,30338,ga,4770 North Peachtree Road,678-234-4428
Decatur,GA,dekalb,Oakhurst Dog Park,30030,ga,450 East Lake Drive,404-377-7231
Atlanta,GA,dekalb,Parklake Dog Park,30345,ga,2200 Parklake Drive Northeast,
Decatur,GA,dekalb,Williamsburg Dog Park,30033,ga,1057 North Jamestown Road,404-633-2817
Albany,GA,dougherty,Dog Park at Walden,31705,ga,Oakwood Street,
Peachtree,GA,fayette,Peachtree City Dog Park,30269,ga,191 McIntosh Trail,770-631-2542
Atlanta,GA,fulton,Atlantic Station Dog Park,30363,ga,State Street,404-888-4900
Atlanta,GA,fulton,Camden Vantage Dog Walk,30312,ga,180 Jackson Street Northeast,
College Park,GA,fulton,Canine Crossing Dog Park,30349,ga,4951 Camp Drive,770-306-3010
Atlanta,GA,fulton,Colonial Homes Dog Park,30309,ga,214 Colonial Homes Drive Northwest,404-883-2440
Atlanta,GA,fulton,Ormewood Park Dog Yard,30309,ga,Westminster Drive Northeast,
Atlanta,GA,fulton,Railside Dog Park,30313,ga,210 Peters Street Southwest,
Atlanta,GA,fulton,Renaissance Park Dog Park,30308,ga,Piedmont Avenue Northeast,
Alpharetta,GA,fulton,Royal Paws Dog Park,30009,ga,13475 Providence Road,770-619-3235
Sandy Springs,GA,fulton,Sandy Springs Dog Park,30350,ga,335 Morgan Falls Road,770-730-5600
Alpharetta,GA,fulton,Wolfbrook Dog Club & Park,30004,ga,13665 New Providence Road,770-772-0440
Duluth,GA,gwinnett,Chattapoochee Dog Park,30096,ga,4291 Rogers Bridge Road,770-814-6981
McDonough,GA,henry,Camden Brookwood Dog Park,30253,ga,Worcester Trail,
Robins AFB,GA,houston,Robins Air Force Base Dog Park,31098,ga,1125 Crescent Drive,
Vidalia,GA,montgomery,Vidalia Community Dog Park,30474,ga,1901 Commerce Drive,
Augusta,GA,richmond,Fort Gordon Dog Park,30905,ga,29722 Rice Road,706-798-0047
Thomasville,GA,thomas,Thomas County Dog Park,31792,ga,403 South Broad Street,
Ewa Beach,HI,honolulu,Ewa Beach Dog Park,96706,hi,91-1075 Kailike Street,
Ewa Beach,HI,honolulu,Ewa By Gentry Dog Park,96706,hi,Keaunui Drive,
Honolulu,HI,honolulu,Hawaii Kai Dog Park,96825,hi,220 Keahole Street,808-396-5225
Kapolei,HI,honolulu,Kalaeloa Dog Park,96707,hi,4285 Independence Loop,866-965-0528
Kailua,HI,honolulu,Kalama Dog Park,96734,hi,355 Kihapai Street,
Honolulu,HI,honolulu,Kamila Dog Park,96818,hi,7288 Ohana Nui Circle,
Honolulu,HI,honolulu,McInerny Dog Park,96826,hi,2700 Waialae Avenue,808-946-2187
Honolulu,HI,honolulu,Moanalua Dog Park,96819,hi,2900 Moanalua Road,808-831-7105
Pearl City,HI,honolulu,Pearl City Peninsula Dog Park,96782,hi,Lehua Avenue,808-839-8670
Boise,ID,ada,Morris Hill Dog Park,83706,id,North Roosevelt Street,
Nampa,ID,canyon,Nampa Dog Park,83686,id,2900 2nd Street South,208-468-5858
Coeur d'Alene,ID,kootenai,Central Bark Kootenai County Dog Park,83815,id,3889 West Nez Perce Road,
Coeur d'Alene,ID,kootenai,Cherry Hill Dog Park,83814,id,1525 East Hazel Avenue,208-964-5995
Moscow,ID,latah,Moscow Off Leash Dog Park,83843,id,2019 White Avenue,
Twin Falls,ID,twin,Baxter Park Dog Park,83301,id,Blake Street North,
Urbana,IL,champaign,Urbana Dog Park,61802,il,1501 East Perkins Road,217-384-4062
Oak Lawn,IL,cook,Bailey's Crossing Dog Park,60453,il,9910 Melvina Avenue,
Chicago,IL,cook,Belmont Harbor Dog Beach,60657,il,3200 North Lake Shore Drive,312-747-2474
Chicago,IL,cook,Churchill Dog Park,60647,il,1825 North Damen Avenue,
Chicago,IL,cook,Clandestine Dog Park,60625,il,North Kedzie Avenue,
Glenview,IL,cook,Community Bark West,60025,il,1001 Zenith Drive,847-657-3215
Forest Park,IL,cook,Forest Park Dog Park,60130,il,Circle Avenue,708-366-2323
Evergreen Park,IL,cook,Happy Bark Dog Park,60805,il,South Rockwell Street,708-422-1551
Chicago,IL,cook,Illinois Street Dog Park,60611,il,479 East Illinois Street,
Chicago,IL,cook,Indiana & 16th Dog Park,60605,il,South Indiana Avenue,
Hinsdale,IL,cook,Katherine Legge Dog Park,60521,il,5901 South County Line Road,630-789-7095
Chicago,IL,cook,Lake Shore East Dog Park,60601,il,450 East Benton Place,312-742-7648
Chicago,IL,cook,Lincoln Park Dog Area,60614,il,2665 North Lincoln Avenue,773-549-2090
Chicago,IL,cook,Logan Square Dog Park,60647,il,2526 North Western Avenue,
Forest Park,IL,cook,Miller Meadows Dog Park,60130,il,2157 South 1st Avenue,800-870-3666
Chicago,IL,cook,Montrose Wilson Dog Beach,60630,il,West Lawrence Avenue,773-599-1666
Chicago,IL,cook,Noblest of Squares Dog Park,60642,il,1400 North Noble Street,
Melrose Park,IL,cook,Northlake Dog Park,60164,il,Whitehall Drive,
Chicago,IL,cook,Ohio Place Dog Park,60654,il,350 West Ohio Street,
Chicago,IL,cook,Ohio Street Dog Park,60654,il,630 North Kingsbury Street,312-742-7529
Park Forest,IL,cook,Park Forest Dog Park,60466,il,359 Wildwood Drive,708-748-2005
Warrenville,IL,dupage,Blackwell Off-Leash Dog Area,60555,il,Mack Road,630-933-7200
Glendale Heights,IL,dupage,East Branch Forest Preserve Dog Off-Leash Area,60139,il,1855 Glen Ellyn Road,
Naperville,IL,dupage,Greene Valley Forest Preserve Dog Park,60540,il,Greene Road,
Oak Brook,IL,dupage,Mayslake Dog Park,60523,il,1717 31st Street,630-933-7248
Glen Ellyn,IL,dupage,Spring Avenue Dog Park,60137,il,185 Spring Avenue,630-858-2462
Naperville,IL,dupage,Springbrook Prairie Dog Park,60540,il,Plainfield-Naperville Road,630-848-5000
Wood Dale,IL,dupage,White Oaks Dog Park,60191,il,111 South Wood Dale Road,630-595-9333
St. Charles,IL,kane,Fox River Bluff Dog Park,60175,il,40W361 Illinois 64,630-584-0995
Aurora,IL,kane,Lincoln Park Dog Park,60506,il,180 South Russell Avenue,630-897-0516
Sugar Grove,IL,kane,Sugar Grove Dog Park,60554,il,Wheeler Road,
Kankakee,IL,kankakee,River Run Dog Park,60901,il,893 West Station Street,815-939-1311
Waukegan,IL,lake,Callahan-Franklin Dog Exercise Area,60085,il,1720 Western Avenue,847-360-4700
Lindenhurst,IL,lake,Duck Farm Dog Exercise Area,60046,il,21201 West Grand Avenue,847-367-6640
Libertyville,IL,lake,Independence Grove Dog Exercise Area,60048,il,North Milwaukee Avenue,847-367-6640
Wauconda,IL,lake,Lakewood Dog Exercise Area,60084,il,North Fairfield Road,847-367-6640
Lake Forest,IL,lake,Prairie Wolf Dog Park,60045,il,2075 South Waukegan Road,
Collinsville,IL,madison,Mutts On Main Dog Park,62234,il,509 West Main Street,618-346-5200
Macomb,IL,mcdonough,Macomb Dog Park,61455,il,South Ward Street,
Normal,IL,mclean,Shepard Park Dog Park,61761,il,Hershey Road,309-454-9540
Chillicothe,IL,peoria,Walnut Dog Park,61523,il,14405 North River Beach Drive,309-274-3409
Springfield,IL,sangamon,Robert A Stuart Dog Park,62702,il,State Route 125,
Springfield,IL,sangamon,Stuart Park Dog Run,62702,il,1800 Winch Road,
Belleville,IL,st,Belleville Dog Park,62220,il,110 North 6th Street,618-233-1416
O'Fallon,IL,st,Rock Springs Park Dog Park,62269,il,1428 East 3rd Street,
Scott AFB,IL,st,Scott Air Force Base Dog Park,62225,il,267 East Clay Street,
Belleville,IL,st,Shiloh Dog Park,62221,il,3756 Lebanon Avenue,
Morton,IL,tazewell,Morton Dog Park,61550,il,22200 North Main Street,
Danville,IL,vermilion,Fetch Dog Park,61832,il,12 Newell Avenue,217-446-9078
Plainfield,IL,will,Daisy Dog Park,60585,il,13214 Blakely Drive,
Wilmington,IL,will,Forked Creek Preserve Dog Park,60481,il,West Ballou Road,815-722-5369
Frankfort,IL,will,Frankfort Bark Park,60423,il,140 Oak Street,815-469-9400
Tinley Park,IL,will,Simba and Nala's Dog Park,60487,il,19900 80th Avenue,815-469-3524
Rockford,IL,winnebago,Canine Corners Dog Parks,61101,il,4950 Safford Road,815-987-8800
Lawrenceburg,IN,dearborn,Lawrenceburg Dog Park,47025,in,Todd Lane,
Goshen,IN,elkhart,Robert L Nelson Dog Park,46526,in,60376 County Road 13,574-875-5102
Carmel,IN,hamilton,Tom Wood Dog Parks,46032,in,14390 Clay Terrace Boulevard,
Plainfield,IN,hendricks,Plainfield Bark Park,46168,in,1007 Longfellow Lane,
Kokomo,IN,howard,Mehlig Dog Park,46901,in,1701 West Carter Street,765-398-9332
Greenwood,IN,johnson,Four Paws Dog Park,46143,in,200 Legacy Boulevard,317-881-4545
Franklin,IN,johnson,Franklin Dog Park,46131,in,396 Branigin Boulevard,317-736-3689
Munster,IN,lake,Centennial Dog Park,46321,in,9701 Calumet Avenue,
Crown Point,IN,lake,Crown Point Dog Park,46307,in,9111 Mathews Street,
Dyer,IN,lake,Dyer Dog Park,46311,in,1 Town Square,219-865-2505
Crown Point,IN,lake,Perry Ferrini Dog Park,46307,in,5061 West 91st Avenue,
Bloomington,IN,monroe,Ferguson Dog Park,47408,in,4300 North Stone Mill Road,
Lafayette,IN,tippecanoe,Shamrock Park Dog Park,47905,in,Sanford Street,765-490-7509
Richmond,IN,wayne,Hills Bark Park,47374,in,Sylvan Nook Drive,765-983-7275
Cedar Falls,IA,black,Cedar Falls Dog Park,50613,ia,3200 South Main Street,319-273-8636
Cedar Falls,IA,black,Cedar Falls Paw Park,50613,ia,3200 South Main Street,319-273-8636
Clinton,IA,clinton,Prairie Pastures Dog Park,52732,ia,801 28th Avenue North,
Burlington,IA,des,Burlington Dog Park,52601,ia,Dankwardt Park Drive,
Newton,IA,jasper,Newton Dog Park,50208,ia,709 1st Avenue West,
Iowa,IA,johnson,Thornberry Off-Leash Dog Park,52245,ia,Canton Street,
Ely,IA,linn,Cheyenne Off Leash Dog Park,52227,ia,1650 Cedar Bend Lane Southwest,
Marion,IA,linn,K9 Acres Off Leash Dog Park,52302,ia,5200 Golf Course Road,319-286-5760
Mount Vernon,IA,linn,Nancy Doreen Huffman Dog Park,52314,ia,U.s. 30,
Red Oak,IA,montgomery,red Oak Dog Park,51566,ia,1907 North Broadway Street,712-623-9310
Sutherland,IA,obrien,Dog Creek County Park,51058,ia,4901 Warbler Avenue,712-448-2254
Altoona,IA,polk,Altoona Dog Park,50009,ia,851 17th Avenue Southwest,515-967-5136
Ankeny,IA,polk,Ankeny Dog Park,50023,ia,1155 Southwest Ankeny Road,515-963-3571
Des Moines,IA,polk,Ewing Park Dog Park,50320,ia,4660 Indianola Avenue,515-237-1386
Runnells,IA,polk,Ropers Ranch Dog Park & Training,50237,ia,200 Southeast 108th Street,515-967-6768
Ames,IA,story,Ames Dog Park,50010,ia,605 Billy Sunday Road,
Indianola,IA,warren,Indianola Off Leash Dog Park,50125,ia,1710 South K Street,515-961-9420
Washington,IA,washington,Sunset Dog Park,52353,ia,1004 1/2 West Madison Street,336-703-6400
Shawnee,KS,johnson,Shawnee Mission Dog Park,66217,ks,7900 Renner Road,913-831-3355
Shawnee,KS,johnson,Swanson's Streamway Dog Park,66218,ks,6241 Woodland Road,913-422-8242
Manhattan,KS,riley,Fairmont Dog Park,66502,ks,Messenger Road,
Wichita,KS,sedgwick,Chapin Dog Park,67216,ks,2466 East Macarthur Road,
Wichita,KS,sedgwick,Chapin Dog Park,67216,ks,2466 East Macarthur Road,316-286-4361
Wichita,KS,sedgwick,Meridian Dog Park,67203,ks,2127 North Meridian Avenue,316-268-4361
Topeka,KS,shawnee,Hills Pet Nutrition Bark Park,66606,ks,Southwest 10th Avenue,
Florence,KY,boone,Boone County Dog Park,41042,ky,8100 Burlington Pike,
Paris,KY,bourbon,Patrick Brannon Memorial Dog Park,40361,ky,1000 Wes Lee Drive,
Fort Thomas,KY,campbell,Fort Thomas Dog Park,41075,ky,950 South Fort Thomas Avenue,859-781-1700
Newport,KY,campbell,Newport Dog Park,41071,ky,449 Linden Avenue,
Lexington,KY,fayette,Chinoe Creek Dog Park,40502,ky,3522 Creekwood Drive,859-554-3324
Lexington,KY,fayette,Wellington Dog Park,40503,ky,565 Wellington Way,859-288-2900
Louisville,KY,jefferson,Champions' Run Dog Park,40206,ky,2930 River Road,
Louisville,KY,jefferson,Cochran Hill Dog Run,40206,ky,740 Cochran Hill Road,502-424-7181
Louisville,KY,jefferson,Morton Street Dog Park,40204,ky,1518 Morton Avenue,
Louisville,KY,jefferson,Sawyer Dog Park,40241,ky,3111 Freys Hill Road,502-429-7270
Richmond,KY,madison,Judy Rains Memorial Dog Park,40475,ky,Lake Reba Drive,
La Grange,KY,oldham,Elizabeth Cleland Cauley Dog Park,40031,ky,Country Club Lane,
Lake Charles,LA,calcasieu,Lake Charles Ward 3 Dog Park,70605,la,Lake Street,337-502-5214
Lake Charles,LA,calcasieu,Ward 3 Dog Park,70601,la,Lake Street,337-990-0112
Baton Rouge,LA,east,Raising Cane's Dog Park,70808,la,1442 City Park Avenue,225-387-9523
Gretna,LA,jefferson,Gretna Dog Park,70053,la,3320 Claire Avenue,
Thibodaux,LA,lafourche,Norman Swanner Dog Park,70301,la,Rue Loudun,985-493-8757
New Orleans,LA,orleans,Cabrini Dog Park,70116,la,Dauphine Street,504-589-0098
New Orleans,LA,orleans,NOLA City Bark,70124,la,Zachary Taylor Drive,504-483-9377
Lewiston,ME,androscoggin,Robin's Garden & Dog Park,04240,me,55 Strawberry Avenue,207-783-2311
Brunswick,ME,cumberland,Brunswick Dog Park,04011,me,220 Neptune Drive,207-725-6656
Portland,ME,cumberland,Quarry Run Dog Park,04103,me,1026 Ocean Avenue,
Portland,ME,cumberland,Valley Street Dog Park,04102,me,Valley Street,207-756-8275
Bath,ME,sagadahoc,Bath Dog Park,04530,me,700 Washington Street,
Belfast,ME,waldo,Walsh Field Dog Park,04915,me,Lincolnville Avenue,
Saco,ME,york,Biddeford Dog Park,04072,me,Rotary Drive,207-282-6500
Kennebunk,ME,york,Kennebunk Dog Park,04043,me,36 Sea Road,
Ogunquit,ME,york,Ogunquit Dog Park,03907,me,Berwick Road,
Gambrills,MD,anne,Davidsonville Dog Park,21054,md,2400 Davidsonville Road,410-222-7317
Fort Meade,MD,anne,Fort Meade Dog Park,20755,md,Ernie Pyle Road,410-519-8500
Severn,MD,anne,Quails Run Dog Park,21144,md,Severn Tree Boulevard,
Glen Burnie,MD,anne,Tanyard Springs Dog Park,21060,md,6920 Heritage Crossing,410-360-4018
Reisterstown,MD,baltimore,BARC Park,21136,md,12035 Reisterstown Road,410-887-3630
Baltimore,MD,baltimore,Canton Dog Park,21224,md,3221 Toone Street,
Reisterstown,MD,baltimore,Hannah Moore Dog Park,21136,md,12035 Reisterstown Road,
Nottingham,MD,baltimore,Olde Forge Bark Park,21236,md,1 Waldmann Mill Court,410-256-8845
Perry Hall,MD,baltimore,Perry Paw Dog Park,21128,md,9033 Honeygo Boulevard,
Baltimore,MD,baltimore,Henry Street Dog Park,21230,md,1240 Henry Street,
Dunkirk,MD,calvert,Dunkirk Doggie Park,20754,md,10750 Southern Maryland Boulevard,410-257-9654
Prince Frederick,MD,calvert,Grays Road Dog Park,20678,md,2695 Grays Road,
Westminster,MD,carroll,Bennett Cerf Dog Park,21157,md,Manchester Road,
Mount Airy,MD,carroll,Mount Airy Dog Park,21771,md,615 Center Street,
White Plains,MD,charles,White Plains Dog Park,20695,md,1015 Saint Charles Parkway,
Frederick,MD,frederick,City of Frederick Dog Park,21701,md,100 South Market Street,301-694-1506
Bel Air,MD,harford,Ma & Pa Dog Park,21014,md,703 North Tollgate Road,410-638-3305
Fallston,MD,harford,Rebel's Dog Park,21047,md,2208 Connolly Road,
Columbia,MD,howard,Friends of Columbia Md Dog Park,21044,md,5901 Rivendell Lane,
Ellicott City,MD,howard,Worthington Dog Park,21043,md,8170 Hillsborough Road,410-313-4455
Ellicott City,MD,howard,Worthington Dog Park of Ellicott City,21043,md,4361 New Cut Road,410-313-4455
Bethesda,MD,montgomery,Cabin John Dog Park,20817,md,10900 Westlake Drive,301-299-0024
Silver Spring,MD,montgomery,Ellsworth Dog Park,20910,md,621 Ellsworth Drive,301-650-2600
Gaithersburg,MD,montgomery,Gaithersburg Dog Park,20878,md,251 Bickerstaff Way,
Rockville,MD,montgomery,King Farm Dog Park,20850,md,Piccard Drive,
Olney,MD,montgomery,Olney Manor Dog Park,20832,md,16601 Georgia Avenue,301-774-6255
Silver Spring,MD,montgomery,Wheaton Dog Park,20902,md,11710 Orebaugh Avenue,301-905-3045
Bowie,MD,prince,City of Bowie Dog Park,20716,md,3600 Northview Drive,301-809-3056
Greenbelt,MD,prince,Greenbelt Dog Park,20770,md,7800 Hanover Parkway,301-345-5417
Hyattsville,MD,prince,Heurich Dog Park,20782,md,Ager Road,
Stevensville,MD,queen,Kent Island Dog Park,21666,md,200 White Pine Lane,
Hagerstown,MD,washington,Hagerstown Dog Park,21740,md,317 Liberty Street,
Salisbury,MD,wicomico,Salisbury Dog Park,21801,md,430 Park Avenue,410-334-3031
Falmouth,MA,barnstable,Falmouth Dog Park,02536,ma,279 Brick Kiln Road,
Mashpee,MA,barnstable,Mashpee Dog Park,02649,ma,180 Ashumet Road,508-488-9663
Egremont,MA,berkshire,French Park Dog Park,01230,ma,Baldwin Hill Road North,
Attleboro,MA,bristol,Attleboro Dog Park,02703,ma,Pond Street,
New Bedford,MA,bristol,Hawthorn Street Dog Park,02740,ma,142 Maple Street,508-997-6924
Andover,MA,essex,Andover Dog Park,01810,ma,233 High Plain Road,
Lynn,MA,essex,Barkland Avenue Dog Park,01905,ma,141 Parkland Avenue,781-599-8875
Gloucester,MA,essex,Gloucester Dog Park,01930,ma,Stage Fort Avenue,
Salem,MA,essex,Leslie's Retreat Dog Park,01970,ma,71 Commercial Street,
East Longmeadow,MA,hampden,East Longmeadow Bark Park,01028,ma,336 North Main Street,
Holyoke,MA,hampden,Wyatt Harper Dog Park,01040,ma,Community Field Road,
Granby,MA,hampshire,Dog Park at Dufresne Park,01033,ma,19 Taylor Street,
Somerville,MA,middlesex,Ed Leathers Community Dog Park,02145,ma,Skilton Avenue,
Lowell,MA,middlesex,Lowell Dog Park,01850,ma,29 1st Street,
Melrose,MA,middlesex,Melrose Dog Park,02176,ma,352 Lynn Fells Parkway,
Woburn,MA,middlesex,Paw Prints Indoor Dog Park,01801,ma,171 Merrimac Street,781-933-7297
Stoneham,MA,middlesex,Sheepfold Dog Park,02180,ma,4 Woodland Road,781-727-1199
Somerville,MA,middlesex,Summer Street Dog Park,02143,ma,57 Summer Street,
Arlington,MA,middlesex,Thorndike Dog Park,02474,ma,99 Margaret Street,
Cambridge,MA,middlesex,Tudor Street Dog Park,02139,ma,Tudor Street,617-497-4163
Waltham,MA,middlesex,Waltham Dog Ranch,02452,ma,Metropolitan Parkway North,
Somerville,MA,middlesex,Zero New Washington Street Dog Park,02145,ma,00 New Washington Street,
Dedham,MA,norfolk,Dedham Dog Park,02026,ma,269 Common Street,781-751-9250
Medway,MA,norfolk,Medway Dog Park,02053,ma,Village Street,508-520-3035
Needham,MA,norfolk,Needham Dog Park,02492,ma,145 Pine Street,
Randolph,MA,norfolk,Randolph Dog Park,02368,ma,169 West Street,
Sharon,MA,norfolk,Sharon Dog Park,02067,ma,30 East Foxboro Street,781-784-8937
Wrentham,MA,norfolk,Wrentham Dog Park,02093,ma,Bennett Avenue,
Plymouth,MA,plymouth,Friends of Plymouth Dog Park,02360,ma,45 Minuteman Lane,508-813-0514
Hingham,MA,plymouth,Stodder's Neck Dog Park,02043,ma,Lincoln Street,617-727-5293
Boston,MA,suffolk,Beecher St Dog Park,02130,ma,16 Beecher Street,
Boston,MA,suffolk,Carleton Court Dog Park,02116,ma,Southwest Corridor Path,
Boston,MA,suffolk,Channel Center Dog Park,02127,ma,199 West First Street,
Boston,MA,suffolk,Mansfield Street Dog Park,02134,ma,Mansfield Street,
Boston,MA,suffolk,Oak Square Dog Park,02135,ma,360 Faneuil Street,
Boston,MA,suffolk,Ronan Park Dog Recreation Space,02122,ma,43 Juliette Street,
Boston,MA,suffolk,South Boston Bark Park,02127,ma,1280 Columbia Road,
Millbury,MA,worcester,Butler Farm Dog Park,01527,ma,44 Singletary Road,
Saugatuck,MI,allegan,Saugatuck Township Tails 'N' Trails Dog Park,49453,mi,6359 134th Avenue,269-857-7721
Hastings,MI,barry,Hastings Dog Park,49058,mi,225 North Cass Street,269-945-2468
New Buffalo,MI,berrien,Sari Asher Memorial Dog Park,49117,mi,1500 East Washington Street,
Boyne,MI,charlevoix,Ridge Run Dog Park,49712,mi,234 Ridge Street,231-582-6597
Davison,MI,genesee,Davison Area Dog Park,48423,mi,1285 North Gale Road,
Flushing,MI,genesee,Key-Lore Woof Woods Dog Park,48433,mi,7185 Gillette Road,810-659-5951
Traverse,MI,grand,Traverse City Dog Park,49684,mi,315 North Division Street,231-922-4910
East Lansing,MI,ingham,Northern Tail Dog Park,48823,mi,6400 Abbot Road,517-319-6809
Lansing,MI,ingham,Soldan Dog Park,48910,mi,1601 East Cavanaugh Road,
Kalamazoo,MI,kalamazoo,Meadow Run Dog Park,49009,mi,900 South 8th Street,269-353-4736
Grand Rapids,MI,kent,Covell Dog Park,49504,mi,501 Covell Avenue Northwest,
Comstock Park,MI,kent,Dam Dogs of Comstock Park,49321,mi,3916 West River Road Northeast,616-647-9449
Grand Rapids,MI,kent,Hillcrest Dog Park,49503,mi,1309 Lyon Street Northeast,616-456-3696
Rockford,MI,kent,Rockford Dog Park,49341,mi,200 Longview Drive,
Ada,MI,kent,Shaggy Pines Dog Park,49301,mi,3895 Cherry Lane Avenue Southeast,616-676-9464
Pinckney,MI,livingston,Arise Church Community Dog Park,48169,mi,11211 Dexter-Pinckney Road,734-878-1928
Howell,MI,livingston,E-Z Dog Park & Training,48843,mi,230 Norlynn Drive,810-494-3647
Warren,MI,macomb,Anne Fracassa Memorial Dog Park,48092,mi,7000 East Twelve Mile Road,586-574-4557
Mount Clemens,MI,macomb,Behnke Memorial Dog Park,48043,mi,300 North Groesbeck Highway,
Eastpointe,MI,macomb,Eastpointe Dog Park,48021,mi,19400 Stephens Road,
Mount Clemens,MI,macomb,Mt Clemens Dog Park,48043,mi,95 Eldredge Street,586-469-6100
St. Clair Shores,MI,macomb,Statler-Maloof Dog Park,48080,mi,East 8 Mile Road,
Birmingham,MI,oakland,Birmingham Dog Park,48009,mi,2666 West 14 Mile Road,248-530-1700
Ferndale,MI,oakland,Hazel Park Dog Park,48220,mi,22111 Woodward Avenue,
Novi,MI,oakland,Novi Dog Park,48375,mi,42400 Nick Lidstrom Drive,
Orion,MI,oakland,Orion Oaks Dog Park,48360,mi,1200 Joslyn Road,248-858-0906
Madison Heights,MI,oakland,Red Oaks Dog Park,48071,mi,31353 Dequindre Road,248-858-0906
Farmington Hills,MI,oakland,William Grace Dog Park,48336,mi,29040 Shiawassee Street,
Holland,MI,ottawa,Park Township Dog Park,49424,mi,1286 Ottawa Beach Road,616-796-8048
Holland,MI,ottawa,Quincy Dog Park,49424,mi,4260 144th Avenue,616-396-2345
Owosso,MI,shiawassee,Owosso Bark Park,48867,mi,North Washington Street,
South Haven,MI,van,South Haven Bark Park,49090,mi,73175 8th Avenue,269-639-7696
Dexter,MI,washtenaw,Paw Run Dog Park,48130,mi,5365 North Territorial Road,734-332-9541
Ann Arbor,MI,washtenaw,Swift Run Dog Park,48108,mi,2998 East Ellsworth Road,734-994-2780
Detroit,MI,wayne,Detroit Dog Park,48216,mi,2301 17th Street,313-224-1129
Grosse Pointe Farms,MI,wayne,Grosse Pointe Farms Dog Park,48236,mi,499 Kerby Road,
Woodhaven,MI,wayne,WoofHaven Dog Park,48183,mi,23101 Hall Road,734-362-2913
Coon Rapids,MN,anoka,Bunker Hills Dog Park,55448,mn,1620 133rd Avenue Northwest,763-757-3920
Fridley,MN,anoka,Locke Dog Park,55432,mn,Rice Creek Boulevard,
Victoria,MN,carver,Victoria Dog Park,55386,mn,7200 Park Drive,
Moorhead,MN,clay,Centennial Athletic Complex & Dog Park,56560,mn,2600 15th Avenue North,218-299-5340
Burnsville,MN,dakota,Black Dog Park,55337,mn,10945 Territorial Drive,
Rosemount,MN,dakota,Dakota Woods Dog Park,55068,mn,16454 Blaine Avenue,
Bloomington,MN,hennepin,Bloomington Dog Park,55438,mn,6202 West 111th Street,952-563-8877
Brooklyn Park,MN,hennepin,Brooklyn Park Dog Parks,55443,mn,7650 June Avenue North,763-424-8000
Eden Prairie,MN,hennepin,Bryant Lake Off Leash Dog Park,55344,mn,6430 Rowland Road,
Minneapolis,MN,hennepin,Columbia Dog Park,55418,mn,Saint Anthony Parkway,
Minneapolis,MN,hennepin,Dog City Dog Park,55427,mn,850 Mendelssohn Avenue North,612-250-8149
Champlin,MN,hennepin,Elm Creek Park Reserve Off-leash Dog Park,55316,mn,11099 Zachary Lane North,763-559-9000
Eden Prairie,MN,hennepin,Flying Cloud Dog Park,55344,mn,7171 Flying Cloud Drive,952-941-2076
Minneapolis,MN,hennepin,Franklin Terrace Dog Park,55406,mn,925 Franklin Terrace,612-230-6400
Minneapolis,MN,hennepin,Gateway Dog Park,55405,mn,1001 North 4th Avenue,
Plymouth,MN,hennepin,Plymouth Dog Park,55446,mn,County Road 47,763-509-5000
Austin,MN,mower,Austin Dog Park,55912,mn,500 2nd Street Southeast,
St. Paul,MN,ramsey,Arlington-Arkwright Dog Park,55130,mn,Arlington Avenue East,651-266-6400
White Bear Lake,MN,ramsey,Bald Eagle - Off-Leash Dog Park,55110,mn,5750 Otter Lake Road,
St. Paul,MN,ramsey,High Bridge Dog Park,55102,mn,59 Randolph Avenue,
St. Paul,MN,ramsey,Lowertown Dog Park,55101,mn,360 Broadway Street,651-460-0723
Shoreview,MN,ramsey,Rice Creek Off-leash Dog Area,55126,mn,5959 Lexington Avenue North,651-748-2500
Northfield,MN,rice,Northfield Dog Park,55057,mn,1100 Babcock Lane,507-645-8935
Prior Lake,MN,scott,Cleary Lake Off Leash Dog Park,55372,mn,19022 Highview Court,
Duluth,MN,st,Keene Creek Dog Park,55807,mn,Bristol Street,802-228-2025
Woodbury,MN,washington,Dale Road Open Space - Dog Park,55129,mn,11664 Dale Road,
Cottage Grove,MN,washington,Wag Farms Dog Park,55016,mn,9475 Glendenning Road,651-368-8596
Woodbury,MN,washington,Woodbury Dog Park,55129,mn,11664 Dale Road,
Biloxi,MS,harrison,Biloxi Dog Park,39532,ms,2150 Popps Ferry Road,228-388-7170
Starkville,MS,oktibbeha,Starkville Dog Park,39759,ms,409 North Montgomery Street,
Columbia,MO,boone,Indian Hills Dog Park,65202,mo,Aztec Boulevard,
Columbia,MO,boone,Twin Lakes Dog Park,65203,mo,4500 Shoram Court,573-443-5825
Fulton,MO,callaway,Fulton Dog Park,65251,mo,1151 Brookside Drive,
Jefferson,MO,callaway,North Jefferson City Dog Park,65101,mo,Sandstone,573-634-6482
Village of Four Seasons,MO,camden,Village of Four Seasons Bark Park,65049,mo,133 Cherokee Road,
North Kansas,MO,clay,Waggin Trail Dog Park,64116,mo,432 East 32nd Avenue,816-513-7500
Springfield,MO,greene,Cruse Dog Park,65807,mo,2100 West Catalpa Street,417-864-1049
Blue Springs,MO,jackson,Blue Springs Dog Park,64029,mo,1049 Northeast 20th Street,816-228-0137
Independence,MO,jackson,Dog Park at Santa Fe Park,64052,mo,2731 South Santa Fe Road,
Lee's Summit,MO,jackson,Dogwood Dog Park,64086,mo,Northwest Victoria Drive,816-969-1500
Lee's Summit,MO,jackson,Happy Tails Park,64081,mo,1251 Southeast Ranson Road,816-969-1500
Lee's Summit,MO,jackson,Lee's Summit Dog Park,64081,mo,1251 Southeast Ranson Road,816-969-1500
Kansas,MO,jackson,Swope Park Off Leash Dog Park,64132,mo,4701 East Gregory Boulevard,816-513-7500
Joplin,MO,jasper,Parr Hill Dog Park,64804,mo,East 18th Street,
Herculaneum,MO,jefferson,All Bark Village - Herculaneum Dog Park,63048,mo,850 Joachim Avenue,636-475-4447
Arnold,MO,jefferson,Arnold Dog Park,63010,mo,Bradley Beach Road,636-282-2380
Fort Leonard Wood,MO,pulaski,Fort Leonard Wood Dog Park,65473,mo,Constitution Avenue,573-596-4223
Cottleville,MO,st,Cottleville Dog Park,63304,mo,5490 5th Street,
St. Charles,MO,st,DuSable Dog Park,63301,mo,2598 North Main Street,636-944-6001
St. Louis,MO,st,Central West End Dog Park,63108,mo,4597 Olive Street,314-669-4293
Creve Coeur,MO,st,Creve Coeur Dog Park,63141,mo,12301 Conway Road,
St. Louis,MO,st,Dutch Town Dog Park,63111,mo,4743 Alabama Avenue,314-732-3361
Chesterfield,MO,st,Eberwein Chesterfield Dog Park,63017,mo,1627 Old Baxter Road,636-812-9500
Ballwin,MO,st,Ellisville Dog Park At Blue Bird Park,63021,mo,225 Kiefer Creek Road,
St. Louis,MO,st,Frenchtown Dog Park,63104,mo,1001 Emmet Street,
Kirkwood,MO,st,Hands On Kirkwood Dog Park,63122,mo,211 North Woodlawn Avenue,314-965-2349
St. Louis,MO,st,Kitun Dog Park,63127,mo,12343 Eddie And Park Road,
Maplewood,MO,st,Maplewood Dog Park,63143,mo,2531 Circle Drive,314-645-3600
St. Louis,MO,st,Southwest City Dog Park,63109,mo,7399 Hampton Avenue,
St. Louis,MO,st,Treecourt Unleashed Dog Adventure Park,63122,mo,2499 Marshall Road,314-960-4741
University,MO,st,University City Dog Park,63130,mo,6860 Vernon Avenue,314-505-8560
Ferguson,MO,st,Wayside Dog Park,63135,mo,1 Delworth Court,
Branson,MO,taney,Elmo & Rosalea Marrs Memorial Dog Park,65616,mo,699 Stockstill Lane,
Hollister,MO,taney,Pepper's Dog Park,65672,mo,312 Esplanade Drive,417-337-8315
Red Lodge,MT,carbon,Double Ditch Dog Park,59068,mt,Rodeo Road,
Bozeman,MT,gallatin,Bozeman Dog Park,59715,mt,Highland Boulevard,
Bozeman,MT,gallatin,Snowfill Dog Park,59715,mt,2143 Story Mill Road,
Kearney,NE,buffalo,Meadowlark North Dog Park,68845,ne,3803 30th Avenue,308-237-4644
Fremont,NE,dodge,Clemmons Dog Park,68025,ne,North Luther Road,
Omaha,NE,douglas,Hefflinger Dog Park,68164,ne,North 112th Avenue,
Lincoln,NE,lancaster,Holmes Lake Dog Park,68506,ne,South 70th Street,402-441-7847
Lincoln,NE,lancaster,Oak Lake Dog Run,68508,ne,2100 North 1st Street,
Lincoln,NE,lancaster,Oak Park Dog Run,68521,ne,2298 North 1st Street,
Lincoln,NE,lancaster,Rickman's Run Dog Park,68506,ne,3701 South 70th Street,
North Platte,NE,lincoln,Happy Hound Dog Retreat Park,69101,ne,301 West 18th Street,
Columbus,NE,platte,Columbus Bark Park,68601,ne,5794 Monastery Road,
Bellevue,NE,sarpy,Bellevue Dog Park,68123,ne,12699 South 23rd Street,
Fallon,NV,churchill,Fallon Dog Park,89406,nv,2390 Schurz Highway,
Las Vegas,NV,clark,Barkin' Basin Dog Park,89129,nv,7341 West Alexander Road,702-455-8200
Boulder,NV,clark,Boulder City Dog Park,89005,nv,1650 Buchanan Boulevard,
Las Vegas,NV,clark,CJ Dog Park,89141,nv,10598 South Jones Boulevard,
Las Vegas,NV,clark,Clark County Dog Fancier's Park,89122,nv,5800 East Flamingo Road,702-455-8200
Las Vegas,NV,clark,Fire Station Dog Park,89141,nv,3799 West Starr Avenue,
Las Vegas,NV,clark,Flamingo-Buffalo Dog Park,89147,nv,7193 West Flamingo Road,
Henderson,NV,clark,Heritage Bark Park,89015,nv,300 South Racetrack Road,702-267-2350
Las Vegas,NV,clark,Kellogg Zaher Dog Park,89128,nv,7601 West Washington Avenue,
Las Vegas,NV,clark,Silverado Ranch Dog Park,89120,nv,2601 East Sunset Road,702-267-4230
Las Vegas,NV,clark,Sunset Park Dog Park,89120,nv,2648 East Warm Springs Road,
Las Vegas,NV,clark,Woofter Dog Park,89128,nv,Rock Springs Drive,
Las Vegas,NV,clark,Woofter Dog Park,89128,nv,1600 Rock Springs Drive,
Reno,NV,washoe,Link Piazzo Dog Park,89502,nv,4740 Parkway Drive,775-720-2001
Reno,NV,washoe,The Dog Park!,89511,nv,15 Trinity Lane,775-453-2667
Conway,NH,carroll,Mt Washington Valley Dog Park,03818,nh,223 East Main Street,603-447-5955
Hudson,NH,hillsborough,Friends of Hudson Dog Park,03051,nh,35 Kimball Hill Road,
Hooksett,NH,merrimack,Hooksett Dog Park,03106,nh,101 Merrimack Street,603-485-5322
Kingston,NH,rockingham,Kingston Dog Park,03848,nh,4 Frontage Road,http://www.kingstondogpark.com/
Hampstead,NH,rockingham,Live Free & Run Dog Park,03841,nh,1 Village Green Road,
Raymond,NH,rockingham,Riverside Bark Dog Park,03077,nh,Sundeen Parkway,603-895-3163
Portsmouth,NH,rockingham,South Mill Pond Dog Park,03801,nh,Junkins Avenue,
Derry,NH,rockingham,Town of Derry Dog Park,03038,nh,45 Fordway Extension,603-432-6100
Dover,NH,strafford,Dover Dog Park,03820,nh,Long Hill Road,
Fort Lee,NJ,bergen,Fort Lee Dog Park,07024,nj,Stillwell Avenue,201-592-4699
Lyndhurst,NJ,bergen,Lyndurst Dog Park,07071,nj,531 Post Avenue,201-939-9339
Maywood,NJ,bergen,Maywood Dog Park,07607,nj,Spring Valley Road,
Ridgewood,NJ,bergen,Ridgewood Dog Park,07450,nj,1133 East Ridgewood Avenue,201-336-7275
Ridgewood,NJ,bergen,Saddle River County Park Dog Run,07450,nj,1199 East Ridgewood Avenue,201-489-2900
Wallington,NJ,bergen,Sam Nelkin County Park Dog Run,07057,nj,316 Maple Avenue,
Westwood,NJ,bergen,Westwood Dog Park,07675,nj,101 Sand Road,
Eastampton,NJ,burlington,Eastampton Gardens Dog Park,08060,nj,C-1 Tudor Court,
Trenton,NJ,burlington,Falcon Courts North Dog Park,08641,nj,3021 McGuire Boulevard,
Medford,NJ,burlington,Medford Dog Park,08055,nj,86 Union Street,609-654-2512
Voorhees,NJ,camden,Connolly Dog Park,08043,nj,8043 Centennial Boulevard,856-429-7174
Runnemede,NJ,camden,Runnemede Dog Park,08078,nj,Lakeview Drive,
Cape May,NJ,cape,Cape May Dog Park,08204,nj,705 Lafayette Street,609-884-9525
Ocean,NJ,cape,Ocean City Dog Park,08226,nj,45th Street,609-398-6900
Woodbine,NJ,cape,The Upper Township Dog Park,08270,nj,Mount Pleasant - Tuckahoe Road,
Bridgeton,NJ,cumberland,Sunshine Dog Park,08302,nj,527 Clarks Pond Road,609-805-4636
Bloomfield,NJ,essex,Brookdale Dog Park,07003,nj,20 Bellevue Avenue,
Maplewood,NJ,essex,South Mountain Dog Park,07079,nj,Bear Lane,973-268-3500
Bayonne,NJ,hudson,1st Street Dog Park,07002,nj,85 West 1st Street,
North Bergen,NJ,hudson,88th Street Dog Park,07047,nj,8800 Grand Avenue,
Hoboken,NJ,hudson,Church Square Park Dog Run,07030,nj,401 Willow Avenue,
Jersey,NJ,hudson,Newport Dog Run,07310,nj,51 River Drive South,
Hoboken,NJ,hudson,Stevens Park Dog Run,07030,nj,401 Hudson Street,
Union,NJ,hudson,Washington Park Dog Run,07087,nj,Paterson Plank Road,
Weehawken,NJ,hudson,Weehawken Dog Park,07086,nj,1500 Avenue At Port Imperial,201-729-1555
Highland Park,NJ,middlesex,Donaldson County Dog Park,08904,nj,398 Riverview Avenue,732-745-3900
Edison,NJ,middlesex,Metuchen-Edison Community Dog Park,08817,nj,200 Whitman Avenue,
Woodbridge,NJ,middlesex,Woodbridge Dog Park,07077,nj,Cliff Road,
Asbury Park,NJ,monmouth,8th Avenue Dog Park,07712,nj,1740 Ocean Avenue,
Marlboro,NJ,monmouth,Marlboro Dog Park,07746,nj,1996 Recreation Way,732-536-0200
Oceanport,NJ,monmouth,Wolf Hill Dog Park,07757,nj,3 Crescent Place,732-229-7025
Parsippany-Troy Hills,NJ,morris,Cameron Dog Park,07054,nj,129 South Beverwyck Road,
Montville,NJ,morris,Montville Dog Park,07045,nj,Changebridge Road,
Morris Plains,NJ,morris,Morris Central Park Dog Park,07950,nj,235 Old Dover Road,973-326-7600
Wayne,NJ,passaic,Friends & Family Park Dog Run,07470,nj,868 Black Oak Ridge Road,973-694-1800
Wayne,NJ,passaic,Wayne Dog Park,07470,nj,868 Black Oak Ridge Road,
West Milford,NJ,passaic,West Milford Dog Park,07480,nj,85 Marshall Hill Road,973-728-5151
Bernards,NJ,somerset,Basking ridge Dog Park,07920,nj,South Maple Avenue,908-630-5539
Montgomery,NJ,somerset,Montgomery Township Dog Park,08502,nj,38 Covert Drive,908-359-8211
Princeton,NJ,somerset,Rocky Top Dog Park,08540,nj,4106 New Jersey 27,732-297-6527
Wantage,NJ,sussex,Wantage Dog Park,07461,nj,128 County Road 628,973-875-4141
Wantage,NJ,sussex,Wantage Dog Park,07461,nj,128 County Road 628,973-875-4141
Mountainside,NJ,union,Echo Lake Dog Park,07092,nj,1000 Springfield Avenue,908-527-4900
Albuquerque,NM,bernalillo,Bud Warren and Lady Dog Park,87114,nm,Ventana Village Road Northwest,505-382-8721
Albuquerque,NM,bernalillo,Canine Skyline Park,87111,nm,4315 Landau Street Northeast,
Albuquerque,NM,bernalillo,Coronado Dog Park,87102,nm,301 McKnight Avenue Northwest,
Albuquerque,NM,bernalillo,Montessa Park off-leash Dog Park,87105,nm,3615 Los Picaros Road Southeast,505-768-1975
Albuquerque,NM,bernalillo,North Domingo Baca Dog Park,87113,nm,7520 Corona Avenue Northeast,877-411-3436
Albuquerque,NM,bernalillo,Ouray Off-leash Dog Park,87120,nm,7500 Ouray Road Northwest,505-768-5353
Albuquerque,NM,bernalillo,Rio Grande Triangle Dog Park,87104,nm,1451 Kit Carson Avenue Southwest,
Albuquerque,NM,bernalillo,Taylor Ranch Dog Park,87120,nm,5999 Unser Boulevard Northwest,
Albuquerque,NM,bernalillo,The Trails Dog Park,87114,nm,8100 Rainbow Boulevard Northwest,
Las Cruces,NM,dona,Las Cruces Dog Park,88001,nm,North Hermosa Street,
Gallup,NM,mckinley,City of Gallup Dog Park,87301,nm,South 2nd Street,
Farmington,NM,san,Westland Dog Park,87401,nm,136 Westland Park Road,
Rio Rancho,NM,sandoval,Rainbow Dog Park,87124,nm,301 Southern Boulevard Southeast,
Santa Fe,NM,santa,Frank S Ortiz Dog Park,87501,nm,160 Camino de Las Crucitas,505-955-2100
Delmar,NY,albany,Bethlehem Dog Park,12054,ny,261 Elm Avenue,
Albany,NY,albany,Erie Boulevard Dog Park,12204,ny,Erie Boulevard,518-434-2483
Albany,NY,albany,Hartman Road Dog Park,12208,ny,1009 New Scotland Road,518-434-2489
Albany,NY,albany,Normanskill Farm Dog Park,12209,ny,Mill Road,518-434-2489
Beacon,NY,dutchess,Beacon Dog Park,12508,ny,195 Robert Cahill Drive,845-445-7595
Hopewell Junction,NY,dutchess,Beekman Dog Park,12533,ny,29 Recreation Center Road,845-227-5783
Poughkeepsie,NY,dutchess,See Spot Run Dog Park,12603,ny,127 Overlook Road,
East Amherst,NY,erie,Amherst Paw Park,14051,ny,500 Smith Road,
Buffalo,NY,erie,Black Rock Canal Dog Park,14207,ny,2200 Niagara Street,
Buffalo,NY,erie,The Barkyard Dog Park,14213,ny,D A R Drive,716-218-0303
Athens,NY,greene,Athens Bunker Hill Dog Park,12015,ny,84 Union Street,
Windham,NY,greene,Windham Dog Park,12496,ny,56 Quads Way,
Bay Ridge,NY,kings,Dyker Dog Park,11228,ny,8514 7th Avenue,
Manhattan Beach,NY,kings,Fish Bridge Park Dog Run,11235,ny,2 Dover Street,212-639-9675
Williamsburg,NY,kings,Happy Dogs at McCarren Park,11211,ny,234 North 12th Street,718-388-7091
Coney Island,NY,kings,Kaiser Park Dog Run,11224,ny,2529 Neptune Avenue,
Williamsburg,NY,kings,McCarren Park Dog Run,11211,ny,Driggs Avenue,212-639-9675
Henrietta,NY,monroe,Henrietta Dog Park at Lookup Park,14467,ny,3850 East Henrietta Road,585-334-1300
Wantagh,NY,nassau,Cedar Creek Park Dog Run,11793,ny,Cedar Lane,516-571-7470
Oceanside,NY,nassau,Cove Dog Run,11572,ny,100 Daly Boulevard,
Westbury,NY,nassau,Eisenhower Dog Park,11590,ny,Salisbury Park Drive,
Port Washington,NY,nassau,Manorhaven Dog Park,11050,ny,81 Manorhaven Boulevard,516-883-7000
Massapequa,NY,nassau,Massapequa Dog Park,11758,ny,Clocks Boulevard,
Massapequa,NY,nassau,Oyster Bay Dog Park,11758,ny,Clocks Boulevard,516-677-5784
Roslyn,NY,nassau,The Park at East Hills Dog Run,11576,ny,209 Harbor Hill Road,516-621-5600
Valley Stream,NY,nassau,Valley Stream Dog Park,11580,ny,Verona Place,516-825-8571
New York,NY,new,72nd Street Dog Run,10023,ny,West 72nd Street,
New York,NY,new,A Dog Walk in the Park NYC,10023,ny,128 West 70th Street,646-468-8614
New York,NY,new,Auxilliary Dog Park,10032,ny,Riverside Drive,
New York,NY,new,Bull Moose Dog Run,10024,ny,West 81st Street,
New York,NY,new,Carl Schurz Small Dog Run,10028,ny,East 86th Street,
New York,NY,new,Chelsea Waterside Dog Park,10011,ny,600 West 24th Street,212-989-6363
New York,NY,new,Chelsea Waterside Dog Run,10011,ny,11th Avenue,
New York,NY,new,Forest Park Dog Run,10035,ny,East River Lane,
New York,NY,new,George's Dog Run,10012,ny,51 Washington Square South,917-534-1400
New York,NY,new,Hell's Kitchen & Clinton Dog Run,10018,ny,West 39th Street,212-736-4536
New York,NY,new,Highbridge Park Dog Run,10040,ny,Amsterdam Avenue,212-639-9675
New York,NY,new,Hudson River Park Dog Run,10036,ny,555 12th Avenue,212-639-9675
New York,NY,new,J Hood Wright Park Dog Run,10033,ny,West 173rd Street,212-639-9675
New York,NY,new,Jay Hood Wright Park Dog Run,10032,ny,Haven Avenue,
New York,NY,new,Jemmy's Dog Run,10010,ny,Madison Square North,212-538-1884
New York,NY,new,Leroy Street Dog Run,10014,ny,Leroy Street,212-627-2020
New York,NY,new,Madison Square Park Dog Run,10010,ny,East 23rd Street,212-538-5058
New York,NY,new,Marcus Garvey Dog Run,10035,ny,Madison Avenue,212-987-0776
New York,NY,new,Maria Hernandez Dog Run,10025,ny,6 Morningside Drive,212-639-9675
New York,NY,new,Mercer-Houston Dog Run,10012,ny,532 LaGuardia Place,212-388-9359
Liverpool,NY,onondaga,Wegman's Good Dog Park,13090,ny,49 Cold Springs Trail,315-453-6712
Cornwall,NY,orange,Cornwall Dog Park,12518,ny,288 Main Street,845-213-8650
Montgomery,NY,orange,Montgomery Dog Park,12549,ny,60 Bachelor Street,845-457-5502
Warwick,NY,orange,Warwick Dog Park,10990,ny,117 Union Corners Road,
Putnam Valley,NY,putnam,Putnam Valley's Lucky Dog Park,10579,ny,156 Oscawana Lake Road,845-526-3292
Jamaica,NY,queens,Baisley Pond Park Dog Run,11434,ny,Baisley Boulevard,
Long Island City,NY,queens,Bugsy's Dog Run,11102,ny,1210 Astoria Park South,
Fresh Meadows,NY,queens,Cunningham Park Dog Run,11366,ny,193rd Street,212-219-0258
Far Rockaway,NY,queens,Freeway Dog Park,11693,ny,8302 Beach Channel Drive,
Glen Oaks,NY,queens,Glen Oaks Village Enchanted Forest Dog Park,11004,ny,70-33 260th Street,718-347-2337
Whitestone,NY,queens,Little Bay Park Dog Run,11357,ny,Cross Island Parkway,212-639-9675
Far Rockaway,NY,queens,Rockaway Freeway Dog Park,11693,ny,83-02 Beach Channel Drive,212-639-9675
Troy,NY,rensselaer,Kinloch Park Dog Park,12180,ny,Parmenter Avenue,
Great Kills,NY,richmond,Crescent Beach Park Dog Run,10308,ny,Tennyson Drive,212-639-9675
Suffern,NY,rockland,Kakait County Park Dog Run,10901,ny,592 Haverstraw Road,
Ballston Spa,NY,saratoga,Paw City Social Club Indoor Dog Park,12020,ny,101 Ford Street,518-309-3732
Ballston Spa,NY,saratoga,Romp and Play Dog Park,12020,ny,584 Eastline Road,
Potsdam,NY,st,Potsdam Community Dog Park,13676,ny,17 Madrid Avenue,
Nesconset,NY,suffolk,Charles P Toner Park Dog Run,11767,ny,148 Smithtown Boulevard,631-724-2543
West Sayville,NY,suffolk,Cherry Ave Dog Park,11796,ny,250 Cherry Avenue,
East Northport,NY,suffolk,East Northport Dog Park,11731,ny,28 Leland Street,
Wading River,NY,suffolk,Isaac Dog Park,11792,ny,5890 New York State Route 25,
Middle Island,NY,suffolk,Middle Island Dog Park,11953,ny,1075 Middle Country Road,631-475-6810
East Patchogue,NY,suffolk,Mud Creek Dog Park,11772,ny,Roe Avenue,
Brookhaven,NY,suffolk,Robinson Duck Farm Dog Park,11719,ny,2903 Montauk Highway,
Selden,NY,suffolk,Selden Dog Park,11784,ny,Boyle Road,631-451-8696
Peconic,NY,suffolk,Southold Dog Park,11958,ny,Peconic Lane,
East Hampton,NY,suffolk,Springs Park Dog Park,11937,ny,3 Three Mile Harbor Road,
Copiague,NY,suffolk,Tanner Park Dog Run,11726,ny,Baylawn Avenue,631-893-2100
Setauket-East Setauket,NY,suffolk,The Social Hound Dog Park,11733,ny,130 North Belle Mead Avenue,631-675-0024
West Hills,NY,suffolk,West Hills Dog Park,11747,ny,Sweet Hollow Road,631-854-4423
Ithaca,NY,tompkins,Ithaca Dog Park,14850,ny,105 Enfield Falls Road,607-272-1460
New Paltz,NY,ulster,Ulster County Dog Park,12561,ny,249 Libertyville Road,845-255-1707
Woodstock,NY,ulster,Woodstock Dog Park,12498,ny,45 Comeau Drive,
Hudson Falls,NY,washington,The Backyard Dog Park,12839,ny,1161 Dix Avenue,518-747-3060
White Plains,NY,westchester,East Rumbrook Dog Park,10607,ny,Dobbs Ferry Road,914-693-8985
Scarsdale,NY,westchester,Elmsford Dog Park,10583,ny,99 Dromore Road,
Harrison,NY,westchester,Harrison New York's Celebrity Dog Park,10528,ny,Crystal Street,914-867-5309
Ossining,NY,westchester,Ossining Dog Park,10562,ny,Cedar Lane,914-497-2373
Peekskill,NY,westchester,Peekskill Dog Park At Beecher Park,10566,ny,Main Street,914-734-7275
New Rochelle,NY,westchester,Ward Acres Dog Park,10804,ny,Quaker Ridge Road,
New Rochelle,NY,westchester,Ward Acres Dog Run,10804,ny,309 Broadfield Road,914-663-8203
Mohegan Lake,NY,westchester,Yorktown Community Dog Park at Sylvan Glen Park Preserve,10547,ny,1800 Morris Lane,
Asheville,NC,buncombe,Azalea Dog Park,28805,nc,395 Azalea Road East,828-259-5800
Hickory,NC,catawba,St Stephens Dog Park,28601,nc,2247 36th Avenue Northeast,828-256-9157
Fayetteville,NC,cumberland,Riverside Dog Park,28301,nc,555 North Eastern Boulevard,910-433-1547
Fayetteville,NC,cumberland,Riverside Dog Park,28301,nc,555 North Eastern Boulevard,910-423-0073
Durham,NC,durham,Downtown Durham Dog Park,27701,nc,101 City Hall Plaza,919-560-4355
Durham,NC,durham,Piney Wood Dog Park,27713,nc,400 East Woodcroft Parkway,
Durham,NC,durham,Woods Edge Dog Park,27707,nc,4655 Hope Valley Road,919-490-1840
Clemmons,NC,forsyth,Tanglewoof Dog Park,27012,nc,4061 Clemmons Road,
Roanoke Rapids,NC,halifax,Halifax County Visitor Center Dog Run,27870,nc,540 Roanoke Avenue,252-535-1687
Roanoke Rapids,NC,halifax,Halifax County Welcome Center And Dog Park,27870,nc,424 Premier Boulevard,
Waynesville,NC,haywood,Pepsi Dog Park,28786,nc,550 Vance Street,
Mooresville,NC,iredell,Mooresville Dog Park,28115,nc,601 South Academy Street,
Clayton,NC,johnston,East Clayton Dog Park,27527,nc,2027 Glen Laurel Road,919-553-1550
Kinston,NC,lenoir,Kinston Rotary Dog Park,28504,nc,North Carolina 11 South,252-939-3332
Charlotte,NC,mecklenburg,Barkingham Park Dog Park,28213,nc,2900 Rocky River Road,704-336-3854
Charlotte,NC,mecklenburg,Davies Dog Park,28226,nc,4635 Pineville-Matthews Road,
Charlotte,NC,mecklenburg,Shuffletown Dog Park,28214,nc,Bellhaven Boulevard,
Davidson,NC,mecklenburg,The Preserve Dog Park,28036,nc,330 O'Henry Avenue,
Wilmington,NC,new,Ogden Dog Park,28411,nc,635 Ogden Park Drive,
Jacksonville,NC,onslow,Tarawa Terrace Dog Park,28543,nc,24243 Bougainville Drive,
Greenville,NC,pitt,Greenville Off-Leash Dog Area Park,27834,nc,200 Nash Street,
Apex,NC,wake,Apex Dog Park,27502,nc,Ambergate Station,919-249-3402
Raleigh,NC,wake,Carolina Pines Dog Park,27603,nc,2305 Lake Wheeler Road,
Cary,NC,wake,Cary Dog Park,27513,nc,2034 North Carolina 54,919-852-4908
Cary,NC,wake,Cary Dog Park at Godbold Park,27513,nc,2050 Northwest Maynard Road,866-978-1728
Wake Forest,NC,wake,Flaherty Dog Park,27587,nc,1150 North White Street,919-435-9560
Fuquay-Varina,NC,wake,Fuquay-Varina Dog Park,27526,nc,110 Woodland Drive,919-552-1430
Raleigh,NC,wake,Lexington Farms Dog Park,27612,nc,3409 Mill Tree Road,855-880-4359
Raleigh,NC,wake,Millbrook Exchange Dog Park,27615,nc,1905 Spring Forest Road,919-872-4156
Garner,NC,wake,North Garner Dog Park,27529,nc,221 East Garner Road,
Raleigh,NC,wake,Oakwood Dog Park,27604,nc,910 Brookside Drive,919-831-6995
Raleigh,NC,wake,Oberlin Court Dog Park,27605,nc,1009 Wade Avenue,919-755-3665
Bismarck,ND,burleigh,Century Bark Park,58503,nd,700 East Century Avenue,701-222-6455
Fargo,ND,cass,Brandts Crossing Dog Park,58104,nd,5009 33rd Avenue South,
Fargo,ND,cass,North Fargo Dog Park,58102,nd,28th Avenue North,
Fargo,ND,cass,Village West Dog Park,58103,nd,4415 9th Avenue Circle South,701-499-6060
Mandan,ND,morton,DogTown Dog Park,58554,nd,2600 46th Avenue Southeast,701-663-3393
Ashtabula,OH,ashtabula,Smith Field Dog Park,44004,oh,1900 West Avenue,
Hamilton,OH,butler,Holly's Dog Park,45011,oh,2921 Vonnie Vale Court,
Oxford,OH,butler,Northside Bark Dog Park,45056,oh,5160 Morning Sun Road,512-523-6940
Euclid,OH,cuyahoga,Euclid Dog Park,44117,oh,Saint Clair Avenue,
Lakewood,OH,cuyahoga,Lakewood Dog Park,44107,oh,Valley Parkway,216-364-7275
Cleveland Heights,OH,cuyahoga,South Euclid Dog Park,44121,oh,679 South Belvoir Boulevard,
Cleveland,OH,cuyahoga,Tremont - Clark Field Dog Park,44113,oh,2820 Quigley Road,
Defiance,OH,defiance,Defiance Bark & Run Dog Park,43512,oh,Precision Way,
Lewis Center,OH,delaware,Alum Creek Dog Park,43035,oh,3993 Hollenback Road,740-548-4631
Delaware,OH,delaware,Bark Till Dark Dog Park,43015,oh,1277 Hills-Miller Road,740-369-9170
Delaware,OH,delaware,Companion Club Dog Park,43015,oh,6306 Home Road,740-881-2000
Pickerington,OH,fairfield,Violet Township Pickerington Dog Park,43147,oh,490 North Center Street,614-575-6911
Columbus,OH,franklin,Godown Dog Park,43235,oh,6099 Godown Road,614-349-6630
Grove,OH,franklin,Grove City Dog Park,43123,oh,3005 Demorest Road,614-277-3050
Hilliard,OH,franklin,Heritage Trail Dog Park,43026,oh,7262 Hayden Run Road,614-891-0700
Columbus,OH,franklin,Scioto Audubon Dog Park,43206,oh,395 East Whittier Street,614-228-3647
Hilliard,OH,franklin,Spindler Road Dog Park,43026,oh,2121 Spindler Road,
Columbus,OH,franklin,Three Creeks Dog Park,43207,oh,2748 Spangler Road,
Xenia,OH,greene,Scout Burnell- Garbrecht Dog Park,45385,oh,618 Dayton Xenia Road,
Lore City,OH,guernsey,Salt Fork Dog Park,43755,oh,14755 Cadiz Road,740-439-2751
Cincinnati,OH,hamilton,Fido Field,45202,oh,630 Eggleston Avenue,
Cincinnati,OH,hamilton,Mt Airy Dog Park,45211,oh,Westwood Northern Boulevard,513-352-4080
Cincinnati,OH,hamilton,Otto Armleder Dog Park,45226,oh,3960 Pennsylvania Avenue,513-521-7275
Cleves,OH,hamilton,Simmonds Family Dog Park,45002,oh,8715 Hamilton Cleves Pike Road,513-367-4774
Kirtland,OH,lake,Canine Meadow Dog Park,44094,oh,9010 Euclid Chardon Road,440-358-7275
Mentor,OH,lake,Mentor Dog Park,44060,oh,6645 Hopkins Road,
Avon Lake,OH,lorain,Avon Lake Dog Park,44012,oh,33401 Webber Road,440-933-6141
Toledo,OH,lucas,Toledo Unleashed Dog Park,43614,oh,1252 Wildwood Road,567-307-0703
Youngstown,OH,mahoning,Pawstown Dog Park,44510,oh,State Street,
Dayton,OH,montgomery,Dog Park at Creager Field,45419,oh,200 Shafor Boulevard,
Huber Heights,OH,montgomery,Sit Stay N' Play Dog Park,45424,oh,6121 Brandt Pike,937-233-3151
Aurora,OH,portage,Tails And Trails Dog Park,44202,oh,841 Page Road,216-771-4485
Lewisburg,OH,preble,Lewisburg Unleashed- A Dog Park,45338,oh,300 East Dayton Street,937-962-4377
Fostoria,OH,seneca,Fostoria Dog Park at Foundation Park,44830,oh,1225 South Union Street,419-435-6608
Canal Fulton,OH,stark,Canal Fulton Dog Park,44614,oh,Butterbridge Road Northwest,330-854-2225
Massillon,OH,stark,Massillon Dog Park,44646,oh,960 17th Street Northeast,
Canton,OH,stark,Ruff Run Dog Park,44721,oh,2825 Easton Street Northeast,330-493-8215
Akron,OH,summit,BARC Akron Dog Park,44310,oh,499 Memorial Parkway,330-510-1364
Stow,OH,summit,Bow Wow Beach Park,44224,oh,5070 Stow Road,330-689-5100
Cuyahoga Falls,OH,summit,Keyser Dog Park,44223,oh,550 Keyser Parkway,
Cortland,OH,trumbull,Cooperation Station Dog Park,44410,oh,1439 Ohio 305,330-637-3011
Lebanon,OH,warren,Ida Juris Bennett Dog Park,45036,oh,Cook Road,
Mason,OH,warren,Schappacher Park Dog Run,45040,oh,4686 Old Irwin Simpson Road,
Bowling Green,OH,wood,Bowling Green Dog Park,43402,oh,1245 East Gypsy Lane Road,419-354-9242
Yukon,OK,canadian,Pets And People Dog Park,73099,ok,701 Inla Street,
Norman,OK,cleveland,Norman Community Dog Park,73071,ok,1001 East Robinson Street,405-366-5472
Enid,OK,garfield,Enid Dog Park,73703,ok,1520 West Oxford Avenue,
Altus,OK,jackson,Altus Dog Park,73521,ok,1207 North Jackson Street,
Edmond,OK,oklahoma,Edmond Dog Park,73013,ok,East 33rd Street,405-715-6315
Midwest,OK,oklahoma,Joe Barnes Dog Park,73110,ok,2516 North Towry Drive,405-739-1293
Oklahoma,OK,oklahoma,Midtown Mutts Dog Park,73103,ok,409 West Park Place,405-488-6262
Oklahoma,OK,oklahoma,Myriad Botanical Gardens Dog Park,73102,ok,West Reno Avenue,
Stillwater,OK,payne,Stillwaggin' Dog Park,74074,ok,2302 West 23rd Avenue,
Tulsa,OK,tulsa,Bark At The Pearl Dog Parks,74120,ok,420 South Peoria Avenue,918-937-9663
Tulsa,OK,tulsa,Biscuit Acres Dog Park,74137,ok,East 91st Street,
Tulsa,OK,tulsa,Joe Station Bark Park,74127,ok,2279 Charles Page Boulevard,
Tulsa,OK,tulsa,Joe Station Dog Park,74127,ok,2279 Charles Page Boulevard,
Happy Valley,OR,clackamas,Happy Valley Dog Park,97086,or,13865 Southeast King Road,503-761-1988
Lake Oswego,OR,clackamas,Hazelia Field Dog Park,97034,or,17800 Stafford Road,
Sandy,OR,clackamas,Sandy Bluff Park & Dog Park,97055,or,36801 Goldenrain Street,
Scappoose,OR,columbia,Scappoose Off-Leash Dog Park,97056,or,52590 Captain Roger Kucera Way,503-410-3101
Bend,OR,deschutes,Big Sky Dog Park,97701,or,21690 Neff Road,541-389-7275
Sutherlin,OR,douglas,Sutherlin Dog Park,97479,or,Maple Avenue,
Ashland,OR,jackson,Ashland Dog Park,97520,or,Helman Street,541-774-2400
Eugene,OR,lane,Amazon Dog Park,97405,or,Amazon Parkway,541-682-4800
Eugene,OR,lane,Armitage Park Dog Park,97408,or,90064 Coburg Road,
Eugene,OR,lane,Candlelight Dog Park,97402,or,900 Throne Drive,
Albany,OR,linn,Albany Dog Park,97322,or,900 Price Road Southeast,
Salem,OR,marion,Minto Brown Dog Park,97302,or,2200 Minto Island Road Southwest,503-588-6336
Troutdale,OR,multnomah,1000 Acre Dog Park,97060,or,Crown Point Highway,
Portland,OR,multnomah,Fido's Indoor Dog Park,97202,or,4949 Southeast 25th Avenue,503-477-9379
Portland,OR,multnomah,Hosford Dog Park,97214,or,2303 Southeast 28th Place,503-916-5640
Portland,OR,multnomah,Normandale Park - Off-Leash Area,97218,or,4100 Northeast Ainsworth Street,
Portland,OR,multnomah,Sacajawea Dog Park,97218,or,Northeast 75th Avenue,503-916-5724
Troutdale,OR,multnomah,Sandy River Delta Dog Park,97060,or,2670 Northwest Graham Circle,503-665-2200
Troutdale,OR,multnomah,Thousand Acres Dog Park,97060,or,Crown Point Highway,503-695-2372
Tigard,OR,washington,Ash Avenue Dog Park,97223,or,12770 Southwest Ash Avenue,503-639-4171
Hillsboro,OR,washington,Hondo Dog Park,97124,or,4499 Northwest 229th Avenue,
Beaverton,OR,washington,Paul and Verna Winkelman Dog Park,97007,or,10139 Southwest 175th Avenue,
Tigard,OR,washington,Potso Dog Park,97223,or,11500 Southwest Winter Lake Drive,503-639-4171
Tualatin,OR,washington,Tualatin Dog Park,97062,or,8515 Southwest Tualatin Road,503-691-3061
Beaverton,OR,washington,Winkleman Dog Park In Beaverton,97007,or,10139 Southwest 175th Avenue,
McMinnville,OR,yamhill,Riverside Dog Park,97128,or,1900 Northeast Riverside Drive,
Pittsburgh,PA,allegheny,Bellevue Woods Dog Park,15229,pa,302 Bellevue Road,
Pittsburgh,PA,allegheny,Frick Park Off Leash Exercise Area,15217,pa,Lower Riverview Trail,
Monroeville,PA,allegheny,Heritage Park Dog Park,15146,pa,2364 Saunders Station Road,
Sewickley,PA,allegheny,Misty Pines Dog Park,15143,pa,2523 Wexford Bayne Road,412-364-4122
Wexford,PA,allegheny,North Park Off-Leash Dog Area,15090,pa,Pearce Mill Road,724-935-5570
Penn Hills,PA,allegheny,Penn Hills Dog Park,15235,pa,1299 Jefferson Heights Road,412-798-2147
Pittsburgh,PA,allegheny,Southside Dog Park,15203,pa,518 East Carson Street,
Pittsburgh,PA,allegheny,Thornburg Dog Park,15205,pa,1062 Princeton Road,412-364-4122
White Oak,PA,allegheny,White Oak Park Dog Park,15131,pa,McClintock Road,
Birdsboro,PA,berks,Danielle Ruiz-Murphy Center for Animal Welfare and Dog Park,19508,pa,610 South Baumstown Road,610-921-2348
Warrington,PA,bucks,Bluestone Creek Dog Park,18976,pa,1260 Almshouse Road,
Warrington,PA,bucks,Doylestown Dog Park,18976,pa,1260 Almshouse Road,215-348-9915
Morrisville,PA,bucks,Falls Township Dog Park,19067,pa,1599 East Penn Valley Road,
Perkasie,PA,bucks,Perkasie Dog Park,18944,pa,555 Constitution Avenue,267-587-7364
Newtown Square,PA,chester,Okehocking Preserve Dog Park,19073,pa,5316 West Chester Pike,610-647-5300
Phoenixville,PA,chester,Reservoir Dogs Park,19460,pa,Fillmore Street,
West Chester,PA,chester,Rooney's Dog Park,19380,pa,Pottstown Pike,
Conneaut Lake,PA,crawford,Conneaut Lake Bark Park,16316,pa,12810 Foust Road,814-382-2267
Glen Mills,PA,delaware,Concord Township Dog Park,19342,pa,30 Bethel Road,
Haverford,PA,delaware,Haverford Reserve Dog Park,19041,pa,9000 Parkview Drive,610-446-9397
Edinboro,PA,erie,Howlabaloo Dog Park,16412,pa,11290 Lay Road,814-734-1161
Wilkes-Barre,PA,luzerne,Hollenback Dog Park,18705,pa,1050 North Washington Street,
West Pittston,PA,luzerne,The West Pittston Dog Park,18643,pa,555 Exeter Avenue,
Conshohocken,PA,montgomery,Conshohocken Dog Park,19428,pa,301 Washington Street,
Perkiomenville,PA,montgomery,Cuddy Park Dog Park,18074,pa,Colonial Drive,
Wyncote,PA,montgomery,Curtis Hall Dog Park,19095,pa,1250 Church Road,215-884-7675
Hatfield,PA,montgomery,Hatfield Dog Park,19440,pa,2500 Chestnut Street,215-855-0900
Ambler,PA,montgomery,Horsham Dog Park,19002,pa,1013 Horsham Road,215-680-8794
Fort Washington,PA,montgomery,MonDaug Bark Park,19034,pa,1130 Camp Hill Road,215-643-1600
North Wales,PA,montgomery,Montgomery County Bark Park,19454,pa,155 Witchwood Drive,215-616-4500
Phoenixville,PA,montgomery,Reynold's Dog Park,19460,pa,1000 Longford Road,610-933-7728
Willow Grove,PA,montgomery,Woodlawn Ave Dog Park,19090,pa,601 Division Avenue,
Philadelphia,PA,philadelphia,Chester Avenue Dog Park,19143,pa,801 South 48th Street,
Philadelphia,PA,philadelphia,Columbus Square Dog Park,19147,pa,1200 Wharton Street,215-685-1890
Philadelphia,PA,philadelphia,Kitchens Lane Dog Run,19119,pa,Kitchens Lane,
Philadelphia,PA,philadelphia,Orianna Hill Dog Park,19123,pa,North Orianna Street,215-574-1209
Philadelphia,PA,philadelphia,Penn's Landing Dog Park,19137,pa,Delaware Avenue,
Philadelphia,PA,philadelphia,Piazza Dog Park,19123,pa,1099 Germantown Avenue,
Philadelphia,PA,philadelphia,Roxborough Dog Park,19128,pa,4123 Mitchell Street,267-437-3452
Philadelphia,PA,philadelphia,Schuylkill River Dog Run,19103,pa,2500 Spruce Street,
Philadelphia,PA,philadelphia,Sherman Mills Dog Park,19129,pa,3502 Scotts Lane,215-991-7601
Philadelphia,PA,philadelphia,Triangle Dog Park,19125,pa,898 Aramingo Avenue,
Somerset,PA,somerset,Jager and Friends Dog Park,15501,pa,534 South Center Avenue,814-443-4900
Murrysville,PA,westmoreland,Murrysville Dog Park,15632,pa,Farm Road,
Greensburg,PA,westmoreland,See Spot Run Doggie Daycare and Dog Park,15601,pa,1206 South Main Street,724-836-7768
York,PA,york,Canine Meadows Dog Park,17406,pa,400 Mundis Race Road,717-840-7440
Dallastown,PA,york,Dallastown Dog Park,17313,pa,South School Place,
Barrington,RI,bristol,Haines Dog Park,02806,ri,3 Haines Park Road,
Providence,RI,providence,Bell St Dog Park,02909,ri,199 Ridge Street,401-861-9046
Providence,RI,providence,Gano Street Dog Park,02906,ri,123 Gano Street,
Johnston,RI,providence,Johnston Dog Park,02919,ri,Riverside Avenue,
Pawtucket,RI,providence,Pawtucket Dog Park,02861,ri,Slater Park Avenue,
North Kingstown,RI,washington,Kayla Jean Ricci Dog Park,02852,ri,159 Allen Harbor Road,
South Kingstown,RI,washington,South Kingstown Dog Park,02879,ri,349 Broad Rock Road,401-792-2233
Hilton Head Island,SC,beaufort,Best Friends Dog Park,29928,sc,11 Castnet Drive,843-342-4580
Charleston,SC,charleston,Ackerman Dog Park,29407,sc,55 Sycamore Avenue,843-724-7324
Mount Pleasant,SC,charleston,Dog & Duck Park West,29466,sc,1117 Park West Boulevard,843-388-6127
Mount Pleasant,SC,charleston,Rifle Range Road Dog Park,29464,sc,1619 Rifle Range Road,
Mount Pleasant,SC,charleston,Town of Mount Pleasant Dog Park,29464,sc,1619 Rifle Range Road,
Summerville,SC,dorchester,Wassamassaw Dog Park,29483,sc,651 Wassamassaw Road,
Greenville,SC,greenville,Cleveland Dog Park,29601,sc,129 Woodland Way,864-232-2273
Myrtle Beach,SC,horry,Myrtle Beach Barc Parc North,29577,sc,Robert M Grissom Parkway,843-918-1000
Columbia,SC,richland,Emily Douglas Dog Park,29205,sc,2431 Terrace Way,803-733-8531
Fort Mill,SC,york,Mary Warner Mack Dog Park,29715,sc,835 Springfield Parkway,803-547-4574
Rapid,SD,pennington,Braeburn Addition Off Leash Dog Area,57702,sd,3350 Idlehurst Lane,605-394-4175
Rapid,SD,pennington,Braeburn Dog Park,57702,sd,3350 Idlehurst Lane,
Morristown,TN,hamblen,Morristown Dog Park At Jaycee Field,37814,tn,1726 Dalton Ford Road,
Chattanooga,TN,hamilton,Chew-Chew Dog Park,37408,tn,1809 Reggie White Boulevard,
Knoxville,TN,knox,PetSafe Downtown Dog Park,37902,tn,200 South Central Street,865-215-4311
Cookeville,TN,putnam,Wag'n Tails Indoor Outdoor Dog Park,38501,tn,310 Newman Drive,931-528-2298
Murfreesboro,TN,rutherford,Murfreesboro Bark Park,37129,tn,1540 West College Street,615-893-2141
Murfreesboro,TN,rutherford,Murfreesboro Bark Park,37129,tn,1540 West College Street,615-890-5333
Murfreesboro,TN,rutherford,Murfreesboro Dog Park,37129,tn,1540 West College Street,615-890-5333
Memphis,TN,shelby,City of Memphis Dog Park,38112,tn,2599 Avery Avenue,901-636-4241
Millington,TN,shelby,NSA Mid-South Dog Park,38053,tn,5907 Savitz Drive,901-874-5420
Kingsport,TN,sullivan,Kingsport Dog Park,37660,tn,800 Granby Road,423-229-9457
Goodlettsville,TN,sumner,Fenway's Dog Park,37072,tn,745 Caldwell Drive,
Hendersonville,TN,sumner,Hendersonville Dog Park,37075,tn,169 East Main Street,615-766-0705
Franklin,TN,williamson,Maggie's Bark Park,37064,tn,138 Claude Yates Drive,615-790-5590
Brentwood,TN,williamson,Nutro Dog Park,37027,tn,920 Heritage Way,
Mount Juliet,TN,wilson,South Mt Juliet Bark Park,37122,tn,151 Southeast Springdale Drive,615-754-2552
Rockport,TX,aransas,Rockport Dog Park,78382,tx,1550 Farm to Market Road 2165,
Temple,TX,bell,Central Texas Bark Park,76502,tx,4320 Lion Park Road,254-298-5690
Harker Heights,TX,bell,Harker Heights Dog Park,76548,tx,100 Mountain Lion Road,
Killeen,TX,bell,Mickey's Dog Park,76543,tx,2201 East Veterans Memorial Boulevard,254-501-8889
San Antonio,TX,bexar,Madison Square Dog Park,78215,tx,498 Camden Street,
San Antonio,TX,bexar,Pearl Brewery Dog Park,78215,tx,303 Pearl Parkway,210-212-7260
Universal,TX,bexar,Universal City Dog Park,78148,tx,134 Athenian Drive,
Alvin,TX,brazoria,Alvin Dog Park,77511,tx,3625 Briscoe Dr,
Harlingen,TX,cameron,Harlingen Dog Park,78550,tx,1601 South M Street,
Olmito,TX,cameron,Stillman Dog Park,78575,tx,416 Farm to Market Road 511,
Plano,TX,collin,Jack Carter Park Dog Park,75023,tx,2601 Pleasant Valley Drive,972-941-2275
McKinney,TX,collin,McKinney Dog Park,75071,tx,3050 Virginia Parkway,
Dallas,TX,collin,NorthBark Dog Park,75287,tx,4899 Gramercy Oaks Drive,214-670-1589
Allen,TX,collin,Settler's Gate Dog Park,75013,tx,1420 West McDermott Drive,972-359-1469
New Braunfels,TX,comal,Puppy Playland Dog Park,78132,tx,1240 Landa Street,
Dallas,TX,dallas,Bark Park Central,75212,tx,2530 West Commerce Street,214-670-3278
Richardson,TX,dallas,Bush Central Barkway Dog Park,75080,tx,North Central Expressway,
Dallas,TX,dallas,Central Dog Park,75209,tx,4711 Westside Drive,214-443-0570
Irving,TX,dallas,City of Irving Dog Park,75038,tx,4140 Valley View Lane,972-721-3773
Coppell,TX,dallas,Coppell Dog Park,75019,tx,400 South Macarthur Boulevard,972-304-3610
Dallas,TX,dallas,Dallas City North Dog Run,75240,tx,7373 Valley View Lane,877-584-7138
Dallas,TX,dallas,Deep Ellum Dog Park,75212,tx,2530 West Commerce Street,214-671-8001
Dallas,TX,dallas,Meadows Foundation Dog Park,75204,tx,500 Liberty Street,214-826-9431
Addison,TX,dallas,Redding Trail Dog Park,75001,tx,14677 Midway Road,972-450-2851
Dallas,TX,dallas,Travis Dog Park,75204,tx,4101 Travis Street,
Dallas,TX,dallas,Unleashed Indoor Dog Park,75228,tx,5151 Samuell Boulevard,214-388-0701
Dallas,TX,dallas,Wagging Tail Dog Park,75248,tx,5841 Keller Springs Road,214-670-1589
Dallas,TX,dallas,White Rock Lake Dog Park,75218,tx,8000 East Mockingbird Lane,214-670-4100
Southlake,TX,denton,BooBoo's Buddies Dog Park,76092,tx,3901 North White Chapel Boulevard,
Frisco,TX,denton,Frisco Dog Park,75034,tx,3335 4th Army Drive,972-292-6500
Flower Mound,TX,denton,Hound Mound Dog Park,75028,tx,1202 South Garden Ridge Boulevard,
Lewisville,TX,denton,Railroad Dog Park,75057,tx,1301 South Railroad Street,972-219-5077
Carrollton,TX,denton,Rosemeade Dog Park,75007,tx,1330 East Rosemeade Parkway,
Denton,TX,denton,Wiggly Field Dog Park,76210,tx,1400 East Ryan Road,940-349-8731
El Paso,TX,el,Westside Community Dog Park,79912,tx,7400 High Ridge Drive,915-587-1623
Waxahachie,TX,ellis,Wags-A-Hachie Dog Park,75165,tx,701 Howard Road,469-309-4000
Katy,TX,fort,Grand Lakes Dog Park,77450,tx,5610 Calico Crossing Lane,
Sugar Land,TX,fort,Pawm Springs Dog Park,77479,tx,15300 University Boulevard,
Longview,TX,gregg,Stragent Dog Park,75605,tx,121 Summerfield Drive,903-237-1270
Seguin,TX,guadalupe,Walnut Springs Dog Park,78155,tx,306 West Nolte Street,
Katy,TX,harris,City of Katy Dog Park,77493,tx,5414 Franz Road,281-391-4840
Houston,TX,harris,Congressman Bill Archer Bark Park,77084,tx,3201 Highway 6 North,281-496-2177
Houston,TX,harris,Danny Jackson Dog Park,77027,tx,4700 Westpark Drive,281-496-2177
Baytown,TX,harris,Eddie Huron Park Dog Walk,77521,tx,4700 Bush Road,
Deer Park,TX,harris,Ella and Friends Dog Park,77536,tx,500 West 13th Street,
Houston,TX,harris,Gene Green Dog Park,77049,tx,6500 East Sam Houston Parkway North,
Houston,TX,harris,Johnny Steele Dog Park,77019,tx,2929 Allen Parkway,713-752-0314
Houston,TX,harris,Johnny Steele Dog Park,77019,tx,2929 Allen Parkway,713-752-0314
Kingwood,TX,harris,Kingwood Dog Park,77339,tx,619 Lakeville Drive,281-358-4597
Spring,TX,harris,Meyer Park Dog Park,77379,tx,16150 Stuebner Airline Road,281-376-3421
Houston,TX,harris,Millie Bush Dog Park,77082,tx,16756 Westheimer Parkway,
Pasadena,TX,harris,Pasadena Dog Park,77504,tx,5170 Burke Road,
Houston,TX,harris,Webster Street Dog Park,77019,tx,1710 Mathews Street,
Houston,TX,harris,Winchester Country Dog Park,77064,tx,9579 Round Up Lane,
Kyle,TX,hays,Plum Creek Dog Park,78640,tx,1077 Fairway,
San Marcos,TX,hays,San Marcos Dog Park,78666,tx,200 Charles Austin Drive,
McAllen,TX,hidalgo,McAllen Dog Park,78501,tx,Tamarack Avenue,
Granbury,TX,hood,Granbury Bark Park,76048,tx,649 West Moore Street,
Beaumont,TX,jefferson,Ida Reed Dog Park,77702,tx,2348 Louisiana Street,
Waco,TX,mclennan,HOT Dog Park,76708,tx,4900 Steinbeck Bend Drive,
Midland,TX,midland,Hogan's Run Off Leash Dog Park,79705,tx,1201 East Wadley Avenue,
Spring,TX,montgomery,Spring Creek Dog Park,77380,tx,1300 North Millbend Drive,
Conroe,TX,montgomery,Wiggins Village Dog Park,77303,tx,565 Bryant Road,936-522-3842
Port Aransas,TX,nueces,Community Dog Park,78373,tx,Clark Parkway,
Amarillo,TX,randall,John Stiff Memorial Dog Park,79109,tx,4800 Bell Street,806-378-3036
Rockwall,TX,rockwall,Rockwall Dog Park,75087,tx,815 East Washington Street,
White Settlement,TX,tarrant,Buzz Fence Dog Park,76108,tx,North Cherry Lane,
Arlington,TX,tarrant,Cobblestone Dog Park,76011,tx,1615 Stoneleigh Court,855-707-8821
Euless,TX,tarrant,Euless Dog Park,76039,tx,1951 Bear Creek Parkway,
Fort Worth,TX,tarrant,Fort Woof Dog Park,76111,tx,750 North Beach Street,972-941-2275
Fort Worth,TX,tarrant,Fort Woof Dog Park,76117,tx,4500 Gateway Park Drive,817-871-7638
Lake Worth,TX,tarrant,Keenum-Shelton Dog Park,76135,tx,3217 Dakota Trail,817-237-7210
Fort Worth,TX,tarrant,Prairie Dog Park,76119,tx,5063 Parker Henderson Road,
Arlington,TX,tarrant,Tails and Trails Dog Park,76018,tx,950 Southeast Green Oaks Boulevard,817-459-5474
North Richland Hills,TX,tarrant,Tipps Canine Hollow Dog Park,76182,tx,7804 Davis Boulevard,817-427-6620
Fort Worth,TX,tarrant,"Watervue's ""Paws to Play"" Community Dog Park",76244,tx,8660 North Beach Street,817-750-6000
Fort Worth,TX,tarrant,ZBonz Dog Park,76116,tx,6930 Camp Bowie Boulevard,
Abilene,TX,taylor,Abilene Dog Park,79602,tx,2070 Zoo Lane,
Abilene,TX,taylor,Camp Barkeley Dog Park,79602,tx,2070 Zoo Lane,
Bee Cave,TX,travis,Bee Cave Dog Park,78738,tx,13676 Bee Cave Parkway,
Austin,TX,travis,Far West Dog Park,78759,tx,10050 Great Hills Trail,
Pflugerville,TX,travis,Harris Ridge Dog Park,78660,tx,14400 Harris Ridge Boulevard,
Austin,TX,travis,Northeast District Park Leash-Free Dog Park,78724,tx,5909 Crystalbrook Drive,
Austin,TX,travis,Norwood Estate Dog Park,78704,tx,1009 Edgecliff Terrace,512-974-6700
Austin,TX,travis,Olympic Heights Dog Park,78748,tx,2715 Marcus Abrams Boulevard,
Austin,TX,travis,Park At Walnut Creek Dog Park,78753,tx,12138 North Lamar Boulevard,512-974-6700
Austin,TX,travis,Red Bud Dog Park,78703,tx,3569 Lake Austin Boulevard,
Austin,TX,travis,Turkey Creek Dog Park,78730,tx,1600 City Park Road,
Austin,TX,travis,Wells Branch Dog Park,78728,tx,14676 Wells Port Drive,512-251-9814
Huntsville,TX,walker,Pineview Dog Park,77340,tx,2335 23rd Street,
Wichita Falls,TX,wichita,Wichita Falls Dog Park,76310,tx,5205 Fairway Boulevard,
Leander,TX,williamson,Doghouse Drinkery Dog Park,78641,tx,3800 County Road 175,512-630-5699
Round Rock,TX,williamson,Round Rock Dog Depot,78664,tx,800 Deerfoot Drive,512-218-5540
Woods Cross,UT,davis,Utah Dog Park,84087,ut,596 West 1500 South,801-872-9030
Salt Lake,UT,salt,Dog-on-it Dog Park,84115,ut,1645 300 West,
Draper,UT,salt,Draper City Dog Park,84020,ut,13450 South 300 East,801-576-6549
Salt Lake,UT,salt,Lindsey Gardens Dog Park,84103,ut,7th Avenue,801-972-7800
Taylorsville,UT,salt,Millrace Dog Park,84123,ut,1200 West 5400 South,
Sandy,UT,salt,Sandy City Dog Park,84070,ut,300 East David Circle,801-568-2900
Draper,UT,salt,South Mountain Dog Run,84020,ut,658 vestry Road,801-910-5243
Salt Lake,UT,salt,Utah Dog Park,84116,ut,1977 West North Temple,801-214-1455
West Jordan,UT,salt,West Jordan Dog Park,84081,ut,5982 New Bingham Highway,
Hurricane,UT,washington,Hurricane City Dog Park,84737,ut,781 North 300 West,
St. George,UT,washington,Snow Park Dog Park,84790,ut,300 East 900 South,435-627-4530
St. Johnsbury,VT,caledonia,Dog Mountain,05819,vt,143 Parks Road,802-748-2700
Essex,VT,chittenden,Essex Dog Park,05452,vt,111 West Street,
South Burlington,VT,chittenden,South Burlington Community Dog Park,05403,vt,240 Kirby Road,
Burlington,VT,chittenden,Starr Farm Dog Park,05408,vt,Starr Farm Road,802-865-7247
Alexandria,VA,alexandria,Carlyle Dog Park,22314,va,450 Andrew's Lane,
Alexandria,VA,alexandria,Duke Street Dog Park,22304,va,Duke Street,703-746-4774
Alexandria,VA,alexandria,Simpson Stadium Dog Park,22301,va,426 East Monroe Avenue,703-555-1212
Alexandria,VA,alexandria,The Dog Park,22314,va,705 King Street,703-888-2818
Arlington,VA,arlington,Clarendon Dog Park,22201,va,1299 North Herndon Street,
Arlington,VA,arlington,Shirlington Dog Park,22206,va,2690 South Oxford Street,
Arlington,VA,arlington,Walter Reed Dog Park,22204,va,2060 South Walter Reed Drive,
Waynesboro,VA,augusta,Coyner Springs Dog Recreation Area,22980,va,2091 Lyndhurst Road,540-942-6735
Chesapeake,VA,chesapeake,Chesapeake Dog Park,23320,va,900 City Park Drive,757-312-0243
Alexandria,VA,fairfax,Amberleigh Dog Park,22315,va,Crestleigh Way,
Oakton,VA,fairfax,Blake Lane Dog Park,22124,va,10033 Blake Lane,
Centreville,VA,fairfax,Madison Ridge Dog Park,20121,va,14807 Rydell Road,703-830-9104
Annandale,VA,fairfax,Mason District Dog Park,22003,va,Pinecrest Parkway,
Reston,VA,fairfax,Reston Dog Park,20194,va,11323 Baron Cameron Avenue,
Springfield,VA,fairfax,South Run Dog Park,22153,va,7550 Reservation Drive,
Vienna,VA,fairfax,Vienna Dog Park,22180,va,700 Old Courthouse Road Northeast,
Alexandria,VA,fairfax,Westgrove Dog Park,22307,va,6801 Fort Hunt Road,
Warrenton,VA,fauquier,Vint Hill Dog Park,20187,va,4263 Aiken Drive,540-347-6965
Hampton,VA,hampton,Ridgeway Bark Park,23669,va,85 East Mercury Boulevard,
Ashland,VA,hanover,Hanover Dog Park,23005,va,12471 Taylor Complex Lane,
Richmond,VA,henrico,Fido Park Ave,23233,va,4025 Lauderdale Drive,804-360-8011
Chantilly,VA,loudoun,Elk Lick Dog Park,20152,va,25152 Elk Lick Road,
Leesburg,VA,loudoun,Leesburg VA Dog Park,20175,va,850 Davis Court Southeast,
Ashburn,VA,loudoun,One Loudoun Dog Park,20147,va,44723 Collingdale Terrace,703-724-1111
Lynchburg,VA,lynchburg,Lynchburg Dog Park,24501,va,515 Monticello Avenue,
Blacksburg,VA,montgomery,Blacksburg Dog Park,24060,va,2100 Toms Creek Road,540-961-1135
Newport News,VA,newport,Fido Field Dog Park,23602,va,201 City Farm Road,
Norfolk,VA,norfolk,Bea Arthur Dog Park,23510,va,501 Front Street,757-622-7382
Norfolk,VA,norfolk,Ghent Dog Park,23517,va,1310 Stockley Gardens,757-609-0437
Norfolk,VA,norfolk,Lafayette Dog Park,23509,va,114 Orleans Circle,
Norfolk,VA,norfolk,Ocean View Dog Park,23503,va,162 Maple Avenue,
Prince George,VA,prince,Dog Park at Independence Place,23875,va,5000 Owens Way,804-352-5472
Woodbridge,VA,prince,K-9 Gunner Memorial Dog Park,22192,va,13000 Minnieville Road,
Woodbridge,VA,prince,Prince William County Dog Park,22192,va,13000 Minnieville Road,
Richmond,VA,richmond,Barker Field Dog Park,23221,va,Shirley Lane,804-239-0783
Salem,VA,roanoke,Salem Rotary Dog Park,24153,va,1301 Indiana Street,540-375-3000
Roanoke,VA,roanoke,Highland Dog Park,24016,va,5th Street,
Fredericksburg,VA,spotsylvania,Fredericksburg Dog Park,22401,va,Kenmore Avenue,540-372-1086
Stafford,VA,stafford,Aquia Harbour Dog Park,22554,va,1202 Aquia Drive,540-659-5024
Winchester,VA,winchester,Winchester Dog Park,22601,va,1001 East Cork Street,
Wenatchee,WA,chelan,Badger Park Off Leash Dog Park,98801,wa,1351 Walla Walla Avenue,509-630-0784
Brush Prairie,WA,clark,Brush Prairie Dog Park,98606,wa,Northeast 149th Street,888-899-0025
Vancouver,WA,clark,Dakota Memorial Off-Leash Dog Park,98683,wa,16800 Southeast 18th Street,360-619-1111
Vancouver,WA,clark,Kane Memorial Dog Park,98682,wa,10910 Northeast 172nd Avenue,888-899-0025
Vancouver,WA,clark,Ross Off-Leash Dog Recreation Area,98663,wa,Northeast Ross Street,888-899-0025
Longview,WA,cowlitz,Gearheart Gardens Dog Park,98632,wa,40 Tennant Way,
Oak Harbor,WA,island,Clover Valley Off Leash Dog Park,98277,wa,Ault Field Road,
Clinton,WA,island,Marguerite Brons Memorial Off-Leash Park,98236,wa,5951 Bayview Road,
Seattle,WA,king,Alki Beach Dog Park,98116,wa,2648 59th Avenue Southwest,206-937-1301
Carnation,WA,king,Carnation Off Leash Dog Park,98014,wa,Larson Avenue,425-333-4192
Renton,WA,king,Cedar River Dog Park,98057,wa,1500 Houser Way South,
Shoreline,WA,king,Eastside Off-Leash Area,98155,wa,1902 Northeast 150th Street,
Federal Way,WA,king,French Lake Off Leash Dog Park,98003,wa,31531 1st Avenue South,253-835-6901
Kirkland,WA,king,Jasper's Dog Park,98034,wa,11225 Northeast 120th Street,
Seattle,WA,king,Magnuson Park Dog Beach,98115,wa,7400 Sand Point Way Northeast,206-684-4075
Seattle,WA,king,Magnuson Park Off-Leash Dog Park,98115,wa,7400 Sand Point Way Northeast,
Redmond,WA,king,Marymoore Off Leash Dog Park,98052,wa,6046 West Lake Sammamish Parkway Northeast,206-477-7275
Seattle,WA,king,Northacres Off-Leash Dog Park,98125,wa,12718 1st Avenue Northeast,206-684-4075
Bellevue,WA,king,Robinswood Park - Off-Leash Dog Corral,98007,wa,2430 148th Avenue Southeast,
Bellevue,WA,king,Robinswood Small Dog Park,98007,wa,2430 148th Avenue Southeast,425-452-6881
Shoreline,WA,king,Shoreview Off-leash Dog Area,98133,wa,320 Northwest Innis Arden Way,
Seattle,WA,king,South Park Bark Park,98108,wa,8457 Dallas Avenue South,206-684-1154
Snoqualmie,WA,king,Three Forks Dog Park,98065,wa,39903 Southeast Park Street,425-831-5784
Snoqualmie,WA,king,Three Forks Off-Leash Dog Park,98065,wa,39912 Southeast Park Street,
Seattle,WA,king,West Ridge Dog Park,98106,wa,7901 Delridge Way Southwest,888-559-3584
Mercer Island,WA,king,Wildwood Off Leash Dog Park,98040,wa,7400 86th Avenue Southeast,
Olalla,WA,kitsap,Bandix Dog Park,98359,wa,Bandix Road Southeast,
Port Orchard,WA,kitsap,Howe Farm Historic Park and Off-Leash Dog Area,98366,wa,Long Lake Road Southeast,
Silverdale,WA,kitsap,Silverdale Dog Park,98383,wa,11601 Silverdale Way Northwest,360-307-9200
Centralia,WA,lewis,Dog Park at Borst Park,98531,wa,118 West Maple Street,360-330-7688
Bonney Lake,WA,pierce,Bonney Lake Dog Park,98391,wa,18902 82nd Street East,253-862-8602
Gig Harbor,WA,pierce,Mccormick Forest Off Leash Dog Area,98332,wa,10123 78th Avenue Northwest,253-858-3400
Tacoma,WA,pierce,Rogers Park Off-Leash Dog Park,98404,wa,East L Street,253-305-1060
Tacoma,WA,pierce,Wapato Park Off Leash Dog Park,98408,wa,6241 South Wapato Lake Drive,
Mukilteo,WA,snohomish,Camp Canine Doggy Daycare & Dog Park,98275,wa,11126 Mukilteo Speedway,
Lake Stevens,WA,snohomish,Cavalero Hill Dog Park,98258,wa,79th Avenue Southeast,425-388-6600
Everett,WA,snohomish,Ebey Island Dog Park,98201,wa,1206 Cherry Avenue,
Edmonds,WA,snohomish,Edmonds Off-Leash Dog Park,98020,wa,498 Admiral Way,
Lake Stevens,WA,snohomish,Lake Stevens Dog Park,98258,wa,79th Avenue Southeast,425-388-6600
Lynnwood,WA,snohomish,Lake Stickney Off Leash Dog Park,98087,wa,13521 Manor Way,
Mountlake Terrace,WA,snohomish,Mountlake Terrace Dog Park,98043,wa,53rd Avenue West,
Mountlake Terrace,WA,snohomish,Mountlake Terrace Off Leash Dog Park,98043,wa,5303 228th Street Southwest,
Mukilteo,WA,snohomish,Mukilteo Off Leash Dog Park,98275,wa,5th Street,
Mukilteo,WA,snohomish,Trails and Tails Dog Park,98275,wa,1100 5th Street,
Liberty Lake,WA,spokane,Patricia Simonet Laughing Dog Park,99019,wa,Spokane Bridge Road,
Spokane,WA,spokane,South Hill Dog Park,99223,wa,South Altamont Street,
Spokane,WA,spokane,Spokanimal Dog Park At High Bridge,99224,wa,330 South A Street,509-534-8133
Lacey,WA,thurston,Hawk's Prairie Dog Park,98516,wa,2420 Hogum Bay Road Northeast,360-754-4580
Olympia,WA,thurston,Sunrise Dog Park,98502,wa,505 Bing Street Northwest,360-753-8365
Lacey,WA,thurston,Thurston County Off-Leash Dog Park,98516,wa,2420 Hogum Bay Road Northeast,360-867-2491
Walla Walla,WA,walla,Walla Walla Dog Park,99362,wa,Dalles Military Road,
Bellingham,WA,whatcom,Fairhaven Dog Park,98225,wa,1717 4th Street,
Morgantown,WV,monongalia,Stanley's Spot Dog Park,26505,wv,185 Garrett Street,
Nekoosa,WI,adams,Room to Roam Dog Park of Rome,54457,wi,1351 Apache Avenue,715-459-3235
Green Bay,WI,brown,Howard Dog Park,54303,wi,1653 Wietor Drive,920-434-4640
Chippewa Falls,WI,chippewa,Happy Tails Dog Park,54729,wi,Chippewa Crossing Boulevard,715-828-1791
Madison,WI,dane,Demetral Park - Dog Off-Leash Park,53704,wi,Packers Avenue,
Verona,WI,dane,Prairie Moraine Dog Park,53593,wi,1970 County Highway Pb,
Madison,WI,dane,Sycamore Park - Dog Off-Leash Park,53714,wi,830 Jana Lane,
McFarland,WI,dane,Urso Dog Park,53558,wi,3565 Elvehjem Road,
Stoughton,WI,dane,Viking Dog Park,53589,wi,2525 County Highway B,608-224-3730
Madison,WI,dane,Warner Park Dog Exercise Area,53704,wi,1625 Northport Drive,608-245-3690
Sister Bay,WI,door,Sister Bay Dog Park,54234,wi,Woodcrest Court,
Eau Claire,WI,eau,Eau Claire County Dog Park,54701,wi,4503 House Road,
Fond du Lac,WI,fond,FIDO Dog Park,54935,wi,195 Satterlee Street,
Johnson Creek,WI,jefferson,Jefferson County Dog Park,53038,wi,Canine Drive,920-674-7260
Kenosha,WI,kenosha,Carlisle Family Dog Park,53140,wi,909 7th Street,262-857-1869
Salem,WI,kenosha,Harris Family Dog Park,53168,wi,75th Street,262-857-1869
Kenosha,WI,kenosha,Kenosha County Dog Parks,53140,wi,1010 56th Street,262-857-1869
Kenosha,WI,kenosha,Wagin' Tail Resort & Indoor Dog Park,53144,wi,5403 52nd Street,262-656-1111
Twin Lakes,WI,kenosha,Warren Close Bark Park,53181,wi,35610 89th Street,262-857-1869
Onalaska,WI,la,Onalaska Dog Park,54650,wi,255 Kramer Road,608-781-9530
Schofield,WI,marathon,Weston Dog Park,54476,wi,6100 Rogan Lane,715-359-6114
Milwaukee,WI,milwaukee,Bay View Dog Park,53207,wi,900 East Lincoln Avenue,
Wauwatosa,WI,milwaukee,Currie Dog Park,53222,wi,3535 North Mayfair Road,414-453-7030
Milwaukee,WI,milwaukee,Granville Dog Park,53224,wi,Good Hope Road,262-251-2542
Milwaukee,WI,milwaukee,Roverwest Dog Exercise Area,53212,wi,3243 North Weil Street,
Oak Creek,WI,milwaukee,Runway Dog Park,53154,wi,1214 East Rawson Avenue,414-257-7275
Kaukauna,WI,outagamie,Kaukauna Dog Park,54130,wi,366 Farmland Court,
Appleton,WI,outagamie,Outagamie Dog Park,54911,wi,East Northland Avenue,
Stevens Point,WI,portage,Point Dog Park,54481,wi,601 Mason Street,715-341-1136
Burlington,WI,racine,Burlington Wi Area Dog Park,53105,wi,480 Calumet Street,
Mount Pleasant,WI,racine,Karen A Nelson Memorial Dog Park,53404,wi,3500 Northwestern Court,
Beloit,WI,rock,City of Beloit Dog Park,53511,wi,2425 Springbrook Court,
Baraboo,WI,sauk,Baraboo Dog Park,53913,wi,700 Hill Street,
Reedsburg,WI,sauk,Reedsburg Dog Park,53959,wi,600 South Golf Course Road,
Spring Green,WI,sauk,Spring Green Dog Park,53588,wi,Shifflet Road,
Sheboygan,WI,sheboygan,Lakeview Park And Pet Run,53081,wi,3201 Lakeshore Drive,
Hartford,WI,washington,Hartford Dog Park,53027,wi,East Monroe Avenue,
Nashotah,WI,waukesha,Nashotah Park Dog Exercise Area,53058,wi,W330N5113 County Road C,262-367-1022
Waupaca,WI,waupaca,Waupaca County Dog Park,54981,wi,557 Lakeside Parkway,
Marshfield,WI,wood,Paws N Play Dog Park,54449,wi,East 21st Street,
Cheyenne,WY,laramie,Nancy Mockler Dog Park,82007,wy,800 Southwest Drive,
